POST_CODE,POST_NAME,x,y
10000,Praha 10,14.49449064,50.07159185
10100,Praha 101,14.46243774,50.06550801
10200,Praha 102,14.53571392,50.05836059
10300,Praha 113,14.63006613,50.01291227
10400,Praha 114,14.60549704,50.03447374
10600,Praha 106,14.49369096,50.05314061
10700,Praha 112,14.59260803,50.06445470
10800,Praha 108,14.51769286,50.08184591
10900,Praha 111,14.56174116,50.04936789
11000,Praha 1,14.42351073,50.08566648
11800,Praha 011,14.40047230,50.08764271
11900,Praha 012,14.40219000,50.09105112
12000,Praha 2,14.43474871,50.07467139
12800,Praha 28,14.42090471,50.06801512
13000,Praha 3,14.46969747,50.08643987
14000,Praha 4,14.44623844,50.04616740
14100,Praha 41,14.47450036,50.04644987
14200,Praha 411,14.45614319,50.00819986
14300,Praha 412,14.42769034,49.99017083
14700,Praha 47,14.41604401,50.03477643
14800,Praha 414,14.48396192,50.01696224
14900,Praha 415,14.52009537,50.02150013
15000,Praha 5,14.37693219,50.06587489
15200,Praha 52,14.37936873,50.03707779
15300,Praha 512,14.35522511,49.99133788
15400,Praha 514,14.34942847,50.01402371
15500,Praha 515,14.31042651,50.03567613
15521,Praha 517,14.27606880,50.06309079
15531,Praha 511,14.35873124,49.95585571
15600,Praha 516,14.38530488,49.96802776
15800,Praha 58,14.35826163,50.05266407
15900,Praha 59,14.38601324,50.00838987
16000,Praha 6,14.37947891,50.10844398
16100,Praha 614,14.28396343,50.09619387
16200,Praha 616,14.35129898,50.08938393
16300,Praha 618,14.30746789,50.06999518
16400,Praha 619,14.32196549,50.11072860
16500,Praha 620,14.37208711,50.13290172
16900,Praha 69,14.36498689,50.08269312
17000,Praha 7,14.43249737,50.10421595
17100,Praha 71,14.41646519,50.11918873
18000,Praha 8,14.46951451,50.10941260
18100,Praha 81,14.42088540,50.13584876
18200,Praha 82,14.47212733,50.14358258
18400,Praha 84,14.44727778,50.14823222
18600,Praha 86,14.45335955,50.09344816
19000,Praha 9,14.50483338,50.10969724
19011,Praha 911,14.61713904,50.08128622
19012,Praha 912,14.58674219,50.08900446
19014,Praha 914,14.66435699,50.09405320
19015,Praha 915,14.58013072,50.12582396
19016,Praha 916,14.66321994,50.07493866
19017,Praha 917,14.57451026,50.14295282
19300,Praha 913,14.62369373,50.11092929
19600,Praha 96,14.52779770,50.15801727
19700,Praha 97,14.54558815,50.13007494
19800,Praha 98,14.55488646,50.10248240
19900,Praha 99,14.51578216,50.13640652
25001,Brandýs n.Labem-St.Bol.1,14.65828810,50.18011387
25063,Mratín,14.56247066,50.19612952
25064,Mìšice u Prahy,14.51758140,50.20159473
25065,Líbeznice,14.48059949,50.19478194
25066,Zdiby,14.43454946,50.16407617
25067,Klecany,14.40855003,50.18480990
25068,Øež u Prahy,14.37086120,50.17524388
25069,Vodochody,14.40432360,50.20617408
25070,Odolena Voda,14.42463921,50.23270132
25072,Kojetice u Prahy,14.49343709,50.23430717
25073,Jenštejn,14.60026822,50.15225103
25075,Káraný,14.74261595,50.18246894
25081,Nehvizdy,14.73208419,50.13123879
25082,Úvaly,14.73273147,50.08387295
25083,Škvorec,14.72804692,50.04093077
25084,Sibøina,14.67425355,50.04310023
25087,Mochov,14.78612765,50.13325758
25088,Èelákovice,14.76094901,50.15865789
25089,Láznì Toušeò,14.71314831,50.16430947
25090,Jirny,14.69905388,50.11574181
25091,Zeleneè v Èechách,14.66682826,50.14066331
25092,Šestajovice,14.67503490,50.11234079
25101,Øíèany u Prahy,14.65308424,49.98647697
25162,Mukaøov,14.74720760,49.98421937
25163,Stranèice,14.66231060,49.94760602
25164,Mnichovice,14.72552649,49.94387243
25165,Ondøejov,14.77347889,49.91170183
25166,Senohraby,14.72498088,49.90747780
25167,Pyšely,14.66185753,49.88046592
25168,Kamenice,14.57496889,49.91219552
25169,Velké Popovice,14.64253373,49.91172706
25202,Jílovištì,14.34456377,49.92923129
25203,Øitka,14.29271521,49.89808092
25204,Èisovice,14.31402155,49.86298535
25205,Hvozdnice,14.35018032,49.86028831
25206,Davle,14.38399127,49.88296171
25207,Štìchovice,14.39259483,49.85304135
25208,Slapy nad Vltavou,14.40564749,49.81653317
25209,Hradiško pod Medníkem,14.42413424,49.86545733
25210,Mníšek pod Brdy,14.27880637,49.87377543
25216,Nuèice,14.21487199,50.01507918
25217,Tachlovice,14.24727529,49.99663959
25218,Úhonice,14.17068216,50.04547503
25219,Rudná u Prahy,14.21986441,50.03557357
25225,Jinoèany,14.27792877,50.01578803
25226,Tøebotov,14.29171467,49.97624268
25228,Èernošice,14.31675940,49.95779681
25229,Dobøichovice,14.27052948,49.92489237
25230,Øevnice,14.23247869,49.90338478
25231,Všenory,14.30939359,49.93085496
25241,Dolní Bøežany,14.46515178,49.94746547
25242,Jesenice u Prahy,14.52592885,49.97437211
25243,Prùhonice,14.55158790,49.99856264
25244,Psáry,14.51637193,49.93935024
25245,Zvole u Prahy,14.41458664,49.92761872
25246,Vrané nad Vltavou,14.38151474,49.92900581
25261,Jeneè,14.21125914,50.09488618
25262,Horomìøice,14.33762830,50.13696060
25263,Roztoky u Prahy,14.38247851,50.15955618
25264,Velké Pøílepy,14.29667715,50.16415253
25265,Tursko,14.31139234,50.19279615
25266,Libèice nad Vltavou,14.35606412,50.19313389
25267,Tuchomìøice,14.28263462,50.13136530
25268,Støedokluky,14.24703934,50.13821386
25281,Petrov u Prahy,14.44383112,49.89175206
25282,Kamenný Pøívoz,14.50110488,49.86247388
25301,Hostivice,14.23731276,50.07462428
25401,Jílové u Prahy,14.48372429,49.89526109
25601,Benešov u Prahy,14.71739107,49.78898707
25701,Postupice,14.77129776,49.71749153
25703,Jankov,14.73987813,49.65280102
25706,Louòovice pod Blaníkem,14.83056508,49.63378937
25708,Naèeradec,14.91687868,49.59672621
25709,Pravonín,14.94579206,49.63685081
25721,Poøíèí nad Sázavou,14.67920937,49.83267601
25722,Èerèany,14.71820476,49.85700664
25723,Pøestavlky u Èerèan,14.73954433,49.85591625
25724,Chocerady,14.82350508,49.85713088
25725,Kozmice u Benešova,14.79017468,49.82700318
25726,Divišov,14.88942203,49.78459872
25728,Chotýšany,14.81886046,49.74769105
25741,Týnec nad Sázavou,14.59454873,49.82899899
25742,Krhanice,14.56244199,49.86523069
25744,Netvoøice,14.48720187,49.80859714
25751,Bystøice u Benešova,14.66156282,49.72012817
25753,Vrchotovy Janovice,14.58273477,49.67610692
25755,Maršovice,14.56743764,49.71036644
25756,Neveklov,14.52503802,49.74600407
25763,Trhový Štìpánov,15.02510778,49.72283892
25764,Zdislavice,14.98016161,49.68028191
25765,Èechtice,15.05113443,49.64646500
25766,Køivsoudov,15.09422746,49.63010388
25768,Dolní Kralovice,15.17419483,49.64529939
25771,Soutice,15.05448209,49.72389027
25786,Milièín,14.67745832,49.57205492
25787,Støezimíø,14.61229008,49.53343158
25788,Èervený Újezd u Votic,14.60512472,49.55604085
25789,Heømanièky,14.58862639,49.60205126
25791,Sedlec-Prèice 1,14.53062335,49.55730721
25792,Sedlec-Prèice 2,14.54839402,49.58541592
25801,Vlašim,14.91341259,49.70475279
25901,Votice,14.62869488,49.64449831
26101,Pøíbram 1,14.01837439,49.69284810
26202,Stará Hu u Dobøíše,14.20670548,49.77389553
26203,Nový Knín,14.31096373,49.78013756
26204,Nová Ves pod Pleší,14.26005031,49.82940247
26205,Velká Leèice,14.31390125,49.81478719
26206,Korkynì,14.34719482,49.77902895
26211,Rosovice,14.11536453,49.74766961
26212,Oboøištì,14.14894468,49.74094851
26213,Neèín,14.20956849,49.69664401
26214,Høimìždice,14.28218686,49.68968575
26215,Borotice,14.28091971,49.73447907
26221,Obecnice,13.91040309,49.70483289
26222,Hluboš,14.02513179,49.75291761
26223,Jince,13.88833588,49.72735879
26225,Pièín,14.06013839,49.75321031
26231,Milín,14.08246006,49.61649982
26232,Peèice,14.09766127,49.60451009
26241,Bohutín,13.93457811,49.65481090
26242,Rožmitál pod Tøemšínem,13.84551116,49.58344980
26243,Vìšín,13.80600808,49.61137472
26244,Hvožïany,13.79867997,49.53042009
26251,Dublovice,14.35669610,49.67617992
26252,Vysoký Chlumec,14.38633737,49.62116226
26255,Petrovice u Sedlèan,14.34583386,49.56826378
26256,Krásná Hora nad Vltavou,14.24916562,49.59978406
26261,Višòová u Pøíbramì,14.12429718,49.68769304
26262,Dolní Hbity,14.17042630,49.65529309
26263,Kamýk nad Vltavou,14.18064401,49.64372715
26272,Bøeznice,13.97966086,49.55842966
26281,Tochovice,13.98849145,49.59796796
26284,Zalužany,14.09678041,49.54587398
26285,Drahenice,13.95862588,49.52080235
26291,Kosova Hora,14.47613131,49.65273886
26293,Nalžovice,14.36430069,49.70265888
26301,Dobøíš 1,14.18455856,49.76392875
26401,Sedlèany,14.41673330,49.65005590
26601,Beroun 1,14.09079134,49.97962014
26701,Králùv Dvùr u Berouna,14.03495824,49.91435263
26703,Hudlice,13.95663908,49.96705980
26705,Nižbor,13.99722733,50.00264005
26706,Hýskov,14.04948475,49.99843341
26707,Chyòava,14.05554490,50.03128559
26711,Vráž u Berouna,14.12649564,49.98650269
26712,Lodìnice u Berouna,14.15879917,49.99959918
26716,Vysoký Újezd u Berouna,14.19761102,49.99270214
26717,Moøina,14.21132055,49.95322366
26718,Karlštejn,14.19412126,49.95523527
26721,Tmaò,14.03746780,49.91086546
26722,Suchomasty,14.06115516,49.89968814
26723,Lochovice,13.98688905,49.85221568
26724,Hostomice pod Brdy,14.05254516,49.83230498
26725,Osov,14.09026843,49.84366551
26726,Všeradice,14.10120020,49.87241760
26727,Liteò,14.14454269,49.89586573
26728,Svinaøe,14.18484228,49.88875997
26729,Zadní Tøebaò,14.20684943,49.91038775
26741,Kublov,13.87651112,49.94341088
26742,Broumy,13.85723086,49.94379429
26743,Bzová u Hoøovic,13.84789609,49.90577145
26751,Zdice,13.93766015,49.90226342
26753,Žebrák,13.88913727,49.87168188
26754,Praskolesy,13.93575761,49.86728081
26761,Cerhovice,13.83509084,49.84824250
26762,Komárov u Hoøovic,13.85880297,49.80051837
26763,Zajeèov,13.84001495,49.74586776
26764,Olešná u Hoøovic,13.80973758,49.78128318
26801,Hoøovice,13.91516207,49.83399147
26901,Rakovník 1,13.73413213,50.11305244
27001,Knìževes u Rakovníka,13.65104645,50.14421205
27002,Kolešovice,13.60279730,50.13691947
27004,Hoøesedly,13.57316582,50.16648642
27006,Kounov u Rakovníka,13.66432317,50.21374043
27007,Mutìjovice,13.69968770,50.19132892
27008,Høedle,13.75223952,50.19039951
27009,Krupá,13.72643231,50.17332635
27021,Pavlíkov,13.75780915,50.05702578
27023,Køivoklát,13.85251909,50.02297045
27024,Zbeèno,13.93172862,50.02976112
27031,Senomaty,13.63063163,50.09942411
27032,Oráèov,13.53783847,50.11183943
27033,Jesenice u Rakovníka,13.48305414,50.08292397
27034,Èistá u Rakovníka,13.56855353,50.03240029
27035,Petrovice u Rakovníka,13.63731837,50.05408378
27036,Lubná u Rakovníka,13.70593256,50.07600823
27041,Slabce,13.72807463,49.99696111
27042,Skryje u Rakovníka,13.78114040,49.95230666
27051,Lužná v Èechách,13.78745278,50.13260939
27052,Lišany u Rakovníka,13.74241626,50.15112465
27053,Krušovice,13.77149985,50.17201722
27054,Øevnièov,13.81685858,50.20269572
27055,Pochvalov,13.79245791,50.23266776
27061,Lány,13.93047329,50.12011650
27062,Rynholec,13.92628004,50.13647445
27064,Mšec,13.90831696,50.19159140
27065,Srbeè,13.88601565,50.22483762
27101,Nové Strašecí,13.88171988,50.13173787
27201,Kladno 1,14.10649245,50.14267462
27203,Kladno 3,14.14610892,50.15587366
27204,Kladno 4,14.06840432,50.13715254
27301,Kamenné Žehrovice,13.99696059,50.10431574
27302,Tuchlovice,14.00152648,50.14137732
27303,Stochov,13.95795661,50.15243539
27304,Kaèice,13.97955361,50.17213137
27305,Smeèno,14.02938539,50.19193887
27306,Libušín,14.05828543,50.17220440
27307,Vinaøice u Kladna,14.08902656,50.17651758
27308,Pchery,14.11652931,50.19152226
27309,Kladno 7,14.11370946,50.17063139
27321,Hobšovice,14.16023702,50.27441084
27322,Hospozín,14.16753559,50.31674586
27323,Èernuc,14.20338858,50.31132749
27324,Velvary,14.24143189,50.29119902
27325,Zvolenìves,14.17726296,50.22995880
27326,Olovnice,14.22475933,50.23854529
27327,Otvovice,14.26934477,50.21291692
27328,Zákolany,14.24611359,50.19979862
27329,Koleè,14.22004507,50.19679323
27341,Brandýsek,14.16746463,50.19564730
27342,Stehelèeves,14.20290550,50.17714092
27343,Buštìhrad,14.19222156,50.15697903
27345,Høebeè,14.15983302,50.13309147
27351,Unhoš,14.11949724,50.08272321
27353,Hostouò u Prahy,14.19044636,50.11435076
27354,Lidice,14.20094888,50.14018886
27361,Velká Dobrá,14.07854498,50.11459526
27362,Družec,14.04330564,50.09351858
27363,Bratronice,13.99258491,50.06159551
27364,Doksy u Kladna,14.04730082,50.11912616
27371,Zlonice,14.08542649,50.28757461
27372,Šlapanice v Èechách,14.10143350,50.31865132
27373,Vraný u Slaného,14.02250513,50.33061577
27374,Klobuky v Èechách,13.95606859,50.27739628
27375,Tøebíz,14.00042806,50.26240476
27376,Pozdeò,13.93272575,50.23981632
27377,Malíkovice,13.96554994,50.20788465
27378,Øisuty,13.98255317,50.22162719
27379,Tuøany u Slaného,14.02074590,50.23693295
27401,Slaný 1,14.10152846,50.23554214
27601,Mìlník 1,14.46599740,50.35737022
27701,Dolní Beøkovice,14.43446875,50.38426103
27703,Horní Poèaply,14.39581893,50.41363879
27704,Cítov,14.39449057,50.37476627
27705,Spomyšl,14.34883315,50.34374850
27706,Lužec nad Vltavou,14.40400922,50.33023152
27707,Vraòany,14.34759437,50.32656343
27708,Ledèice,14.28647701,50.33860145
27711,Neratovice 1,14.50932032,50.26233628
27713,Kostelec nad Labem,14.59322804,50.22318624
27714,Døísy,14.64016480,50.24599534
27715,Tišice,14.56019894,50.26290616
27716,Všetaty,14.58018439,50.28502514
27721,Libìchov,14.49566899,50.45974870
27723,Kokoøín,14.56398764,50.44840670
27724,Vysoká u Mìlníka,14.52102392,50.40618660
27731,Velký Borek,14.54396524,50.34097619
27732,Byšice,14.60863840,50.31607195
27733,Øepín,14.62719382,50.37237236
27734,Nebužely,14.58039193,50.38505460
27735,Mšeno u Mìlníka,14.64390462,50.43758190
27736,Lobeè,14.66643556,50.45915177
27737,Chorušice,14.66671463,50.38944025
27738,Mìlnické Vtelno,14.67989299,50.35360858
27741,Kly,14.51310707,50.30641993
27742,Obøíství,14.47513370,50.30349090
27743,Chlumín,14.44704175,50.28407063
27744,Vojkovice u Kralup n.Vlt.,14.38044987,50.28471942
27745,Úžice u Kralup n.Vltavou,14.40375219,50.28187256
27746,Veltrusy,14.33585027,50.27677155
27751,Nelahozeves,14.29485227,50.26984833
27752,Nová Ves u Mìlníka,14.31289763,50.31073951
27801,Kralupy nad Vltavou 1,14.31671995,50.23364382
28002,Kolín 2,15.17697192,50.03478662
28101,Velim,15.10394107,50.06273458
28102,Cerhenice,15.08035815,50.07872950
28103,Radim u Kolína,15.00042250,50.07267412
28104,Plaòany,15.03530679,50.05025376
28106,Vitice,14.92188855,50.03097855
28107,Svojšice u Kolína,15.04381724,50.00286887
28121,Èervené Peèky,15.20808850,49.97913865
28123,Starý Kolín,15.28866454,50.00868307
28125,Konárovice,15.27615123,50.03582361
28126,Týnec nad Labem,15.37727445,50.07415524
28127,Krakovany v Èechách,15.35883503,50.06872373
28128,Radovesnice,15.35711250,50.10389865
28129,Žiželice nad Cidlinou,15.38508546,50.12689222
28130,Ohaøe,15.29537697,50.09742013
28141,Ratboø,15.15914815,49.97934347
28143,Beèváry,15.07657209,49.95604084
28144,Zásmuky,15.04618704,49.94884959
28146,Horní Kruty,14.95167707,49.92124273
28151,Velký Osek,15.19816191,50.09374288
28161,Kouøim,14.97540852,50.00369591
28162,Oleška u Èeského Brodu,14.91324007,49.97140327
28163,Kostelec nad Èernými Lesy,14.89619536,49.96960726
28166,Jevany,14.82235750,49.97096144
28167,Støíbrná Skalice,14.86092400,49.90338871
28171,Rostoklaty,14.79510908,50.07563141
28201,Èeský Brod,14.85017207,50.06292160
28401,Kutná Hora 1,15.24430655,49.92198969
28403,Kutná Hora 3,15.28832743,49.96718310
28404,Kutná Hora 4,15.26999633,49.97807443
28501,Miskovice u Kutné Hory,15.20896656,49.94884724
28502,Suchdol u Kutné Hory,15.16635726,49.95196113
28504,Uhlíøské Janovice,15.06633604,49.87179528
28506,Sázava,14.93682008,49.84923666
28507,Rataje nad Sázavou,14.97475968,49.84851173
28509,Kácov,15.03263693,49.77599306
28510,Èestín,15.10491192,49.80536815
28511,Nepomìøice,15.14421738,49.88013299
28521,Zbraslavice,15.18509502,49.81262756
28522,Zruè nad Sázavou 1,15.13931556,49.76983367
28523,Vlastìjovice,15.18054750,49.73701283
28525,Bohdaneè u Zbraslavic,15.22341836,49.77781851
28531,Nové Dvory u Kutné Hory,15.32493860,49.97556730
28532,Hlízov,15.29304313,49.98940966
28533,Církvice u Kutné Hory,15.34126793,49.95149759
28541,Malešov,15.22744687,49.91205198
28542,Èervené Janovice,15.26055589,49.83208495
28543,Pabìnice,15.30661270,49.84225110
28544,Tøebonín,15.31038354,49.86460555
28545,Kluky u Kutné Hory,15.32215039,49.90220510
28546,Úmonín,15.27522064,49.88596424
28547,Køesetice,15.26594603,49.90938471
28561,Žleby,15.47761325,49.88967515
28562,Hostovlice u Èáslavì,15.46514468,49.86522152
28563,Tupadly,15.40588098,49.87217361
28564,Vlkaneè,15.40986986,49.80252641
28565,Zbýšov v Èechách,15.35179513,49.80764943
28571,Vrdy,15.46217743,49.92593606
28572,Bílé Podolí,15.48490692,49.96369391
28573,Horušice,15.43872003,49.99751211
28574,Záboøí nad Labem,15.35444972,50.02255325
28575,Žehušice,15.41341061,49.96169985
28576,Chotusice,15.39326031,49.95146767
28601,Èáslav,15.37364053,49.87487743
28802,Nymburk 2,15.04932546,50.20399499
28901,Dymokury,15.21995919,50.24765991
28902,Knìžice u Mìstce Králové,15.33967970,50.26751355
28903,Mìstec Králové,15.30330563,50.21746373
28904,Opoènice,15.24450469,50.17885229
28905,Žehuò,15.29895378,50.13948488
28906,Sány,15.24252293,50.12033654
28907,Libice nad Cidlinou,15.19551159,50.13014799
28908,Bìrunice,15.34185138,50.18791337
28911,Peèky,15.02447788,50.09722252
28912,Sadská,14.95704546,50.13891436
28913,Zvìøínek,15.02696218,50.15503454
28914,Poøíèany,14.91837631,50.10986704
28915,Kounice,14.83656110,50.11734615
28916,Pøerov nad Labem,14.83412026,50.15804041
28917,Semice,14.87660310,50.16104696
28921,Kostomlaty nad Labem,14.95568223,50.18813774
28922,Lysá nad Labem,14.84831021,50.20615797
28923,Milovice nad Labem 1,14.89350636,50.24075865
28924,Milovice nad Labem 3,14.88693076,50.22839879
28925,Straky,14.96095815,50.22827034
28926,Stará Lysá,14.80007942,50.22868079
28931,Bobnice,15.07290424,50.22008935
28932,Oskoøínek,15.08096322,50.24982561
28933,Køinec,15.13614579,50.26276467
28934,Rožïalovice,15.14862352,50.30848921
28935,Košík,15.13548750,50.32924248
28936,Mcely,15.06863997,50.29990389
28937,Louèeò,15.02565464,50.28179962
28941,Pòov,15.14184414,50.09323542
29001,Podìbrady,15.13108280,50.15430314
29301,Mladá Boleslav 1,14.90431001,50.41700592
29306,Kosmonosy,14.92752999,50.43999951
29307,Josefùv Dùl u M.Boleslavì,14.87485891,50.46469080
29401,Bakov nad Jizerou,14.93247182,50.47858672
29402,Knìžmost,15.05670751,50.48796910
29403,Obruby,15.08274180,50.45809533
29404,Dolní Bousov,15.10485863,50.42747474
29405,Dlouhá Lhota u Ml.Boles.,15.05863145,50.42505888
29406,Bøezno u Mladé Boleslavì,15.02389307,50.41328156
29411,Loukov u Mnich.Hradištì,15.03226174,50.56362230
29412,Žïár u Mnichova Hradištì,15.09308012,50.53342816
29413,Mohelnice nad Jizerou,14.96204671,50.58012744
29414,Jivina u Mnich.Hradištì,14.94934548,50.55179126
29415,Klášter Hradištì n.Jiz.,14.94593595,50.53063987
29421,Bìlá pod Bezdìzem,14.81011049,50.51753861
29423,Èistá u Mladé Boleslavì,14.82665801,50.47433783
29424,Bøezovice u Ml.Boleslavì,14.73938307,50.48877567
29425,Katusice,14.76962581,50.45684771
29426,Skalsko,14.72853788,50.41817026
29427,Velké Všelisy,14.74509628,50.37293376
29428,Chotìtov,14.80218142,50.33797604
29429,Bezno,14.78857032,50.36648396
29430,Dolní Cetno,14.81114776,50.40002062
29431,Krnsko,14.86396193,50.36788519
29441,Dobrovice,14.96048776,50.36486597
29442,Luštìnice,14.93838347,50.32114592
29443,Èachovice u Ml.Boleslavì,14.93547686,50.27355873
29445,Jabkenice,15.01739439,50.32139827
29446,Semèice,15.02486813,50.36251430
29447,Ledce u Mladé Boleslavi,15.07801675,50.35220581
29448,Domousnice,15.09832079,50.39849290
29471,Benátky nad Jizerou 1,14.83148734,50.29279362
29473,Brodce nad Jizerou,14.86047830,50.33145337
29474,Pøedmìøice nad Jizerou,14.74279100,50.24023116
29475,Sojovice,14.76293404,50.22044328
29476,Kostelní Hlavno,14.69397570,50.26825258
29477,Meèeøíž,14.73815468,50.28647857
29478,Dolní Slivno,14.73440896,50.30932163
29479,Kropáèova Vrutice,14.70504105,50.32177976
29501,Mnichovo Hradištì,14.93478472,50.53503308
30100,Plzeò 1,13.36660631,49.72594385
31200,Plzeò 12,13.43769546,49.75914793
31800,Plzeò 18,13.32667582,49.73306827
32100,Plzeò 21,13.34993145,49.68964632
32200,Plzeò 22,13.31461520,49.75595950
32300,Plzeò 23,13.37753961,49.78243188
32600,Plzeò 26,13.42990763,49.72092873
33001,Kyšice,13.48809616,49.74997245
33002,Dýšina,13.50551291,49.77209593
33003,Chrást u Plznì,13.48081775,49.79118417
33005,Dobøíè,13.47256835,49.88616462
33007,Druztová,13.44346974,49.79229788
33008,Zruè-Senec,13.42669546,49.80307207
33011,Tøemošná u Plznì,13.40133000,49.83245267
33012,Horní Bøíza,13.36337711,49.85304120
33013,Trnová u Plznì,13.31941640,49.86756964
33014,Ledce u Plznì,13.32752614,49.81944292
33016,Všeruby u Plznì,13.23195292,49.83992492
33017,Chotíkov,13.31039521,49.79723794
33021,Línì,13.27073844,49.69904450
33022,Zbùch,13.22144821,49.67980413
33023,Nýøany,13.15786281,49.71399182
33024,Heømanova Hu,13.07735850,49.71485478
33025,Blatnice u Plznì,13.15947481,49.71689117
33026,Tluèná,13.24071769,49.72603710
33027,Vejprnice,13.27736692,49.72664342
33032,Kozolupy,13.23634704,49.75857369
33033,Mìsto Touškov,13.19847544,49.78150996
33035,Líšany,13.18479139,49.83819347
33036,Pernarec,13.09097086,49.85355272
33038,Únìšov,13.10320169,49.90819218
33041,Bezvìrov,13.03834649,49.97815696
33101,Plasy,13.35558440,49.93629142
33141,Kralovice,13.49249406,49.97165111
33144,Kožlany,13.53656616,49.99478490
33151,Kaznìjov,13.43459262,49.89055469
33152,Dolní Bìlá,13.26216099,49.89024690
33162,Manìtín,13.19763048,49.98042874
33165,Žihle,13.34961258,50.05744993
33201,Tymákov,13.51199713,49.71366782
33202,Starý Plzenec,13.46691779,49.69685106
33203,Šáhlavy,13.52593187,49.67890990
33204,Nezvìstice,13.50298639,49.64131999
33205,Chválenice,13.47505329,49.64320584
33207,Støížovice u Plznì,13.45696672,49.61376774
33209,Štìnovice,13.39597366,49.65285836
33211,Hradec u Stoda,13.12102471,49.63495283
33214,Chotìšov,13.20558899,49.65905116
33301,Stod,13.13268133,49.64030235
33401,Pøeštice,13.32530414,49.56486787
33441,Dobøany,13.28853284,49.65518203
33442,Chlumèany u Pøeštic,13.30799055,49.62912355
33443,Dnešice,13.26410512,49.60878751
33444,Dolní Lukavice,13.33250895,49.59786304
33452,Merklín u Pøeštic,13.17829174,49.55060284
33453,Roupov,13.24959803,49.53933159
33454,Lužany u Pøeštic,13.31233757,49.54599660
33455,Horšice,13.38795074,49.52947734
33501,Nepomuk 1,13.60043708,49.48889289
33503,Nepomuk 3,13.60711827,49.49509279
33541,Vrèeò,13.63014405,49.51019155
33543,Dožice,13.70474509,49.52437916
33544,Kasejovice,13.72553320,49.45625177
33546,Oselce,13.67052242,49.43687184
33547,Nekvasovy,13.62387650,49.43302540
33551,Mìcholupy u Blovic,13.55343752,49.52576898
33554,Žinkovy,13.49047318,49.48194308
33555,Neurazy,13.50877774,49.44162258
33561,Spálené Poøíèí,13.62591699,49.61734271
33563,Nové Mitrovice,13.68490890,49.58216030
33564,Èížkov u Blovic,13.68128112,49.54286548
33601,Blovice,13.51573114,49.56173176
33701,Rokycany 1,13.63755906,49.75387762
33801,Holoubkov,13.69262568,49.77782394
33805,Mýto v Èechách,13.74611469,49.77882657
33806,Cheznovice,13.77993341,49.78068947
33808,Zbiroh,13.72271602,49.89303606
33821,Osek u Rokycan,13.60536204,49.78616497
33822,Volduchy,13.64010206,49.77012417
33824,Bøasy 1,13.55903988,49.83269267
33828,Radnice u Rokycan,13.63411344,49.84788666
33841,Klabava,13.54042160,49.75520099
33842,Hrádek u Rokycan,13.62725841,49.71565314
33843,Mirošov 1,13.69015025,49.67286803
33844,Dobøív,13.68676833,49.71608734
33845,Strašice,13.76951192,49.74270723
33901,Klatovy 1,13.30071466,49.35418811
34004,Železná Ruda,13.23207830,49.14621259
34012,Švihov,13.32164508,49.48146697
34014,Chudenice,13.17602319,49.46611593
34021,Janovice nad Úhlavou,13.23074687,49.32193846
34022,Nýrsko,13.15000986,49.25298183
34034,Plánice,13.48633431,49.39113680
34101,Horažïovice,13.64252535,49.35618662
34142,Kolinec,13.40690864,49.28471470
34192,Kašperské Hory,13.50235493,49.06181912
34201,Sušice 1,13.50764486,49.19226042
34401,Domažlice 1,12.85817710,49.42080751
34501,Mrákov,12.95576573,49.39558130
34502,Kout na Šumavì,12.99863098,49.39667924
34506,Kdynì,13.06562389,49.37651210
34507,Všeruby u Kdynì,12.98847333,49.34003393
34509,Pocinovice,13.12630783,49.33709798
34521,Meclov,12.87319719,49.50712668
34522,Pobìžovice,12.77903282,49.50399545
34525,Hostouò u Horš.Týna,12.70785993,49.55782176
34526,Bìlá nad Radbuzou,12.70460191,49.59421622
34532,Èeská Kubice,12.85200175,49.36100167
34533,Trhanov,12.81082910,49.41090684
34534,Klenèí pod Èerchovem,12.81787021,49.43468233
34535,Postøekov,12.78580518,49.45506960
34543,Koloveè,13.10498669,49.47444088
34545,Blížejov,12.98710606,49.50370533
34561,Staòkov,13.05834628,49.53865378
34562,Holýšov,13.06967393,49.59242135
34601,Horšovský Týn,12.92796356,49.55384656
34701,Tachov 1,12.54768135,49.78174854
34801,Staré Sedlištì,12.68691638,49.74452168
34802,Bor u Tachova,12.80713418,49.69168793
34806,Pøimda,12.62199993,49.66196258
34813,Chodová Planá,12.77210774,49.90872119
34815,Planá u Mariánských Lázní,12.70113359,49.84955270
34901,Støíbro,12.96647899,49.75003816
34952,Konstantinovy Láznì,12.97537049,49.85585517
34953,Bezdružice,12.90561688,49.89501038
34958,Èernošín,12.88204794,49.82306493
34961,Kladruby u Støíbra,12.98132353,49.71187976
35002,Cheb 2,12.43177833,50.05935952
35101,Františkovy Láznì,12.34306007,50.12051535
35124,Hranice u Aše,12.17261100,50.30211165
35132,Hazlov,12.27705629,50.16141188
35134,Skalná,12.41474195,50.19191246
35135,Plesná u Chebu,12.34392338,50.21913895
35137,Luby u Chebu,12.38434176,50.25547299
35201,Aš 1,12.20322528,50.22812023
35301,Mariánské Láznì 1,12.70150808,49.98410763
35491,Láznì Kynžvart,12.63532318,50.02280541
35601,Sokolov 1,12.65143994,50.14881323
35604,Dolní Rychnov,12.65328518,50.15872324
35701,Rotava 1,12.55186667,50.30553132
35703,Svatava,12.61290701,50.19041678
35707,Oloví,12.55812101,50.25465655
35709,Habartov,12.53891187,50.20564483
35731,Horní Slavkov,12.79134243,50.13982264
35733,Loket,12.75738679,50.18977713
35734,Nové Sedlo u Lokte,12.72169205,50.20508155
35735,Chodov u Karlových Var 1,12.71681006,50.24691683
35751,Kynšperk nad Ohøí,12.53274589,50.12126786
35755,Bukovany u Sokolova,12.58258669,50.15951828
35801,Kraslice,12.55526650,50.32822834
36001,Karlovy Vary 1,12.88565550,50.20348492
36004,Karlovy Vary 4,12.87929450,50.24285388
36005,Karlovy Vary 5,12.84946971,50.23639207
36006,Karlovy Vary 6,12.82932789,50.22544043
36007,Karlovy Vary 7,12.82718809,50.20213171
36010,Karlovy Vary 10,12.85973000,50.24461946
36017,Karlovy Vary 17,12.82327466,50.24851238
36018,Karlovy Vary 18,12.81446364,50.21472906
36221,Nejdek 1,12.71535066,50.34478202
36222,Nejdek 2,12.74355976,50.32495684
36225,Nová Role,12.79463201,50.28497395
36233,Hroznìtín,12.86762282,50.30946457
36234,Merklín u Karlových Var,12.86600085,50.33164252
36235,Abertamy,12.78674503,50.40298485
36236,Pernink,12.79125681,50.37391944
36251,Jáchymov,12.90010016,50.37693051
36263,Dalovice,12.90556009,50.25050329
36272,Kyselka,13.02032006,50.24414817
36273,Vojkovice nad Ohøí,13.01347768,50.30631237
36301,Ostrov nad Ohøí,12.97255647,50.33785250
36401,Toužim,12.96369517,50.05567693
36452,Žlutice,13.15831561,50.09895025
36453,Chyše,13.24580891,50.11781928
36461,Teplá u Toužimì,12.88437751,49.97162910
36464,Beèov nad Teplou,12.83460533,50.08973652
36471,Bochov,13.04103771,50.16615504
37001,Èeské Budìjovice 1,14.41930874,48.94331093
37004,Èeské Budìjovice 4,14.47814523,48.99174612
37005,Èeské Budìjovice 5,14.42758278,48.98844391
37006,Èeské Budìjovice 6,14.56085832,48.94503739
37007,Èeské Budìjovice 7,14.46764199,48.90047088
37008,Èeské Budìjovice 8,14.50877894,48.94705868
37010,Èeské Budìjovice 10,14.49961195,49.00807978
37011,Èeské Budìjovice 11,14.44359754,49.00377078
37301,Temelín,14.33804520,49.18927772
37304,Chrášany u Týna nad Vlt.,14.38594526,49.29235289
37311,Ledenice,14.62593226,48.93532642
37312,Borovany,14.68834381,48.90062325
37314,Komaøice,14.54569504,48.87460792
37315,Nová Ves u Èes.Budìjovic,14.53840422,48.91771589
37316,Dobrá Voda u È.Budìjovic,14.52683145,48.96740289
37321,Slavèe,14.61078430,48.79640420
37322,Loèenice,14.53399540,48.83296436
37323,Svatý Jan nad Malší,14.50949536,48.81759484
37324,Øímov,14.48055744,48.85379975
37331,Olešnice u Èes.Budìjovic,14.70938769,48.84279245
37332,Jílovice u Trhových Svin,14.72060902,48.88880253
37333,Nové Hrady v již.Èechách,14.76026452,48.77245689
37334,Byòov,14.81567824,48.83142525
37335,Horní Stropnice,14.73546272,48.75932774
37336,Rychnov u Nových Hradù,14.66620559,48.75724867
37341,Hluboká nad Vltavou,14.42764118,49.07020581
37343,Purkarec,14.44151173,49.13671044
37344,Zliv,14.37162217,49.06077300
37346,Pištín,14.34556915,49.04484930
37347,Sedlec u Èes.Budìjovic,14.28486910,49.07554229
37348,Dívèice,14.30323427,49.10445691
37349,Mydlovary,14.34782211,49.08852250
37350,Olešník,14.36771793,49.10602383
37351,Døíteò,14.35003561,49.14051941
37361,Hrdìjovice,14.47604806,49.01830224
37363,Ševìtín,14.57390149,49.09200626
37364,Dynín,14.63490550,49.12833362
37365,Dolní Bukovsko,14.59623725,49.16293054
37366,Žimutice,14.51280137,49.20259593
37367,Borek,14.50459733,49.02735560
37371,Rudolfov,14.55294986,49.00274385
37372,Lišov u Èeských Budìjovic,14.60419178,49.03829520
37373,Štìpánovice u È.Budìjovic,14.66719746,48.98308982
37381,Kamenný Újezd,14.46047694,48.88931825
37382,Boršov nad Vltavou,14.44211824,48.92315547
37383,Èakov,14.30520194,48.98278098
37384,Dubné,14.31708212,48.96978384
37401,Trhové Sviny,14.61504688,48.84289968
37501,Týn nad Vltavou 1,14.40856985,49.21587400
37701,Jindøichùv Hradec 1,14.99362619,49.15021533
37801,Lásenice,14.97163806,49.06995811
37802,Stráž nad Nežárkou,14.94598158,49.05764599
37804,Chlum u Tøebonì,14.91695822,48.97301945
37805,Klikov,14.92279574,48.90985967
37806,Suchdol nad Lužnicí,14.88450458,48.87826227
37807,Rapšach,14.94741222,48.86896519
37808,Dvory nad Lužnicí,14.89470490,48.84010591
37809,Nová Ves nad Lužnicí,14.93629089,48.81433018
37810,Èeské Velenice,14.94394875,48.77504925
37816,Lomnice nad Lužnicí,14.74418229,49.09437364
37817,Novosedly nad Nežárkou,14.82608151,49.07636497
37818,Støíbøec,14.87538243,49.03655413
37821,Kardašova Øeèice,14.86109246,49.21146543
37824,Pluhùv Žïár,14.89808137,49.22332294
37825,Deštná u Jindø.Hradce,14.92732057,49.26089125
37826,Lodhéøov,14.96189736,49.21866061
37831,Horní Pìna,15.04363614,49.09805947
37832,Èímìø,15.07470996,49.06715019
37833,Nová Bystøice,15.11896198,49.04291659
37841,Jarošov nad Nežárkou,15.06397556,49.19174166
37842,Nová Vèelnice,15.06973636,49.23254599
37843,Horní Radouò,14.99853899,49.25898538
37846,Roseè,14.90880928,49.12962487
37852,Blažejov,15.09938318,49.13865721
37853,Strmilov,15.23574214,49.15780334
37855,Popelín,15.19015540,49.21550250
37856,Studená,15.28571773,49.18694925
37858,Velká Lhota,15.33824473,49.14027013
37861,Èlunek,15.13072196,49.10882557
37862,Kunžak,15.19119856,49.11834232
37871,Staré Hobzí,15.46517755,49.00467477
37872,Píseèné nad Dyjí,15.44527102,48.95944594
37873,Dešná u Daèic,15.53625960,48.95164937
37881,Slavonice,15.34679899,49.00282617
37882,St.Mìsto pod Landštejnem,15.25764939,48.98992411
37883,Èeský Rudolec,15.32014730,49.06430003
37891,Budíškovice,15.52936012,49.07706385
37892,Budeè,15.58369084,49.09209296
37901,Tøeboò,14.78528023,48.98557478
38001,Daèice,15.43328124,49.08713455
38101,Èeský Krumlov 1,14.29242238,48.80613470
38202,Zlatá Koruna,14.36191623,48.85154901
38203,Køemže,14.26371378,48.91702540
38206,Brloh,14.19586434,48.93104234
38208,Chvalšiny,14.16486287,48.86916924
38211,Vìtøní,14.31011819,48.73482664
38216,Svìtlík,14.20833134,48.72879543
38218,Rožmberk nad Vltavou,14.36172529,48.64587729
38221,Kájov,14.26118614,48.80775695
38222,Hoøice na Šumavì,14.17485788,48.76311121
38223,Èerná v Pošumaví,14.11769739,48.74163528
38226,Horní Planá,14.09325601,48.74536361
38229,Boletice u Èes.Krumlova,14.06955806,48.83877502
38231,Mirkovice,14.38561175,48.81546815
38232,Velešín,14.42243456,48.81981492
38241,Kaplice 1,14.55937839,48.69452100
38272,Dolní Dvoøištì,14.42058624,48.64340314
38273,Vyšší Brod,14.23082645,48.63707974
38276,Louèovice,14.24155425,48.60805682
38278,Lipno nad Vltavou,14.21141447,48.64587789
38279,Frymburk,14.14749786,48.67620556
38281,Besednice,14.56124372,48.78802939
38282,Benešov nad Èernou,14.62179260,48.72692846
38283,Pohorská Ves,14.63351117,48.63278845
38291,Malonty,14.57113493,48.68166550
38292,Rožmitál na Šumavì,14.37984896,48.70022834
38293,Horní Dvoøištì,14.39812131,48.60824733
38301,Prachatice,14.05316473,48.97672670
38401,Nebahovy,14.05660045,49.00808316
38402,Lhenice,14.15385314,48.99651139
38403,Ktiš,14.12590138,48.91763871
38404,Chroboly,14.06346893,48.95777940
38411,Netolice,14.19315297,49.04560838
38421,Husinec,13.91309037,49.03472901
38422,Vlachovo Bøezí,13.97218952,49.09556433
38425,Dub u Prachatic,14.01170397,49.10120549
38426,Strunkovice nad Blanicí,14.05250990,49.08341785
38427,Vitìjovice,14.07216186,49.04001310
38432,Lažištì,13.91979538,49.04006959
38433,Záblatí u Prachatic,13.94540076,48.99326055
38441,Zbytiny,13.96433836,48.92792940
38442,Lenora,13.80795438,48.92981486
38443,Strážný,13.68537566,48.91281667
38444,Stožec,13.86954763,48.83159511
38451,Volary,13.87214360,48.86552514
38462,Nová Pec,13.92863423,48.77516061
38471,Šumavské Hoštice,13.86636713,49.03951013
38472,Zdíkov,13.68521636,49.06859647
38473,Stachy,13.67475099,49.11598949
38481,Èkynì,13.84068040,49.10115717
38486,Vacov,13.73814472,49.13135168
38491,Horní Vltavice,13.78250429,48.97170509
38492,Borová Lada,13.64926863,48.97038680
38493,Kvilda,13.58109430,49.01439548
38501,Vimperk,13.69198564,49.03413374
38601,Strakonice 1,13.92360105,49.27459041
38701,Volynì,13.90796045,49.16829239
38706,Malenice nad Volyòkou,13.87844854,49.12453634
38711,Katovice,13.82562837,49.27419549
38715,Støelské Hoštice,13.75201595,49.30085404
38716,Volenice,13.75780169,49.23917570
38719,Èestice,13.78615898,49.17395939
38720,Kraselov,13.80014577,49.22437219
38731,Radomyšl,13.93595196,49.31566316
38732,Sedlice u Blatné,13.94101772,49.37625657
38733,Kadov u Blatné,13.78083389,49.40178481
38734,Záboøí u Blatné,13.82260003,49.38161454
38735,Doubravice u Strakonic,13.86268939,49.35207965
38736,Meèichov,13.79803503,49.34590143
38737,Tøebohostice,13.85560678,49.33431683
38742,Lnáøe,13.81397333,49.47816278
38743,Bìlèice,13.87625254,49.50445815
38751,Štìkeò,14.01227848,49.27047631
38752,Cehnice,14.02751375,49.21658630
38756,Èepøovice,13.97866164,49.15904017
38771,Èíèenice,14.22851542,49.15506246
38772,Libìjovice,14.19155136,49.11307830
38773,Bavorov,14.06237536,49.14105177
38775,Skoèice,14.10088707,49.17775609
38801,Blatná,13.89565368,49.42323264
38901,Vodòany,14.15834647,49.15042838
39001,Tábor 1,14.64685973,49.40637723
39002,Tábor 2,14.70231321,49.42573146
39003,Tábor 3,14.65524987,49.43145811
39005,Tábor 5,14.68778370,49.39157681
39101,Sezimovo Ústí 1,14.68680366,49.38024068
39102,Sezimovo Ústí 2,14.71271382,49.38194417
39111,Planá nad Lužnicí,14.68612467,49.34688807
39116,Myslkovice,14.75159400,49.29848288
39117,Košice u Sobìslavì,14.75326642,49.32528626
39118,Choustník,14.84417853,49.33346920
39120,Radenín,14.82558571,49.36528947
39121,Turovec,14.75725517,49.36952565
39126,Tuèapy u Sobìslavì,14.81106571,49.29457917
39127,Dírná,14.85448056,49.24436204
39131,Dražice,14.58339084,49.44309094
39132,Božejovice,14.48680902,49.45538350
39133,Jistebnice,14.54485996,49.49728656
39135,Borotín u Tábora,14.62107098,49.50472770
39136,Sudomìøice u Tábora,14.65971398,49.50625344
39137,Chotoviny,14.68449703,49.47271881
39142,Ratiboøské Hory,14.76899275,49.45854496
39143,Mladá Vožice,14.80139545,49.52489408
39152,Smilovy Hory,14.87571968,49.53583371
39153,Vodice u Tábora,14.91349863,49.46594978
39155,Chýnov,14.83874541,49.41461391
39156,Tábor 4,14.72988898,49.40108597
39161,Opaøany,14.50436085,49.41002998
39162,Stádlec,14.49517564,49.37554099
39165,Bechynì,14.49148145,49.30389521
39171,Bøeznice u Bechynì,14.50652197,49.25522766
39172,Sudomìøice u Bechynì,14.55336113,49.28897215
39173,Hlavatce,14.62045581,49.29537006
39174,Želeè u Tábora,14.65216881,49.31815010
39175,Malšice,14.58553973,49.34991156
39176,Slapy u Tábora,14.61767328,49.38780342
39181,Veselí nad Lužnicí 1,14.69362836,49.18431906
39191,Borkovice,14.63342692,49.20301518
39201,Sobìslav,14.76004295,49.27913727
39301,Pelhøimov,15.24009839,49.40858085
39401,Rynárec,15.23355255,49.38294337
39402,Dobrá Voda u Pelhøimova,15.20678457,49.36975344
39403,Horní Cerekev,15.33163587,49.31920315
39404,Nový Rychnov,15.37150713,49.38347490
39405,Vyskytná u Pelhøimova,15.36110111,49.42470222
39409,Kojèice,15.25630921,49.47582972
39411,Cetoraz,14.95537745,49.45575016
39412,Obrataò,14.94347134,49.42378242
39413,Kámen u Pacova,15.01484282,49.42273262
39414,Leskovice,15.08549626,49.43071709
39415,Nová Cerekev,15.11350061,49.42218111
39421,Hoøepník,15.10010385,49.51770682
39422,Košetice,15.11539458,49.55847496
39424,Køešín u Pacova,15.04229975,49.58347282
39426,Lukavec u Pacova,14.99604287,49.56548996
39427,Vyklantice,15.04122326,49.55783526
39428,Velká Chyška,15.03683556,49.50902640
39443,Mladé Bøíštì,15.33764670,49.49431260
39444,Želiv,15.21793008,49.52770566
39445,Køelovice u Pelhøimova,15.16409953,49.53424345
39446,Èervená Øeèice,15.16210844,49.50545526
39451,Kalištì,15.30739823,49.59960273
39452,Kejžlice,15.39539118,49.58758277
39456,Senožaty,15.20887289,49.57137069
39459,Koberovice,15.25579706,49.58629302
39461,Božejov,15.15943755,49.35425956
39462,Libkova Voda,15.19590612,49.37531105
39463,Èastrov,15.17546064,49.30968401
39464,Poèátky,15.24275902,49.26470239
39468,Žirovnice,15.19363491,49.26088544
39470,Kamenice nad Lipou,15.09204509,49.32049682
39491,Bohdalín,15.01614754,49.31114416
39492,Mnich,14.98146967,49.29405861
39493,Chválkov u Kamenice n.Lip,14.97189543,49.32919009
39494,Èernovice u Tábora,14.98047041,49.36906855
39495,Køeè,14.91659116,49.38483352
39496,Tìmice u Kamenice n.Lipou,15.03981314,49.35042502
39501,Pacov,15.02938910,49.50179654
39601,Humpolec,15.30245735,49.55347549
39701,Písek 1,14.15177367,49.33979062
39801,Mirotice,14.04354881,49.43038994
39804,Èimelice,14.06033638,49.47681027
39806,Mirovice,14.04575623,49.51976143
39807,Orlík nad Vltavou,14.16195307,49.49986310
39811,Protivín,14.21807035,49.22235545
39815,Tálín,14.21979605,49.25063464
39816,Albrechtice nad Vltavou,14.31121786,49.25652425
39817,Chøešovice,14.29098567,49.32283992
39818,Záhoøí u Písku,14.21083787,49.35069076
39819,Kluky u Písku,14.24413363,49.30994801
39821,Kestøany,14.06713642,49.27483160
39822,Ražice,14.09745651,49.24463066
39831,Èížová,14.09289120,49.35697696
39832,Vráž u Písku,14.11772759,49.39048004
39833,Ostrovec,14.11745427,49.41662101
39834,Kuèeø,14.24486746,49.43007748
39835,Oslov,14.20028447,49.39717357
39842,Veselíèko u Milevska,14.35269740,49.38949395
39843,Bernartice u Milevska,14.36016583,49.36684412
39847,Slabèice,14.33305052,49.32887172
39848,Jetìtice,14.27710396,49.39201875
39851,Sepekov,14.40786939,49.43540365
39852,Nadìjkov,14.47761227,49.50393147
39853,Chyšky,14.42342731,49.52541676
39854,Hrazánky,14.34258538,49.51712735
39855,Kováøov,14.28021068,49.51555150
39858,Kostelec nad Vltavou,14.20625894,49.49826038
39859,Hrejkovice,14.28892428,49.47580359
39901,Milevsko 1,14.33957747,49.48336393
40001,Ústí nad Labem 1,14.00472438,50.65400117
40002,Ústí nad Labem 2,14.06337191,50.66128372
40003,Ústí nad Labem 3,14.05920845,50.64680770
40004,Trmice,13.99688723,50.64302323
40007,Ústí nad Labem 7,14.07435341,50.66833988
40010,Ústí nad Labem 10,13.97768689,50.68654685
40011,Ústí nad Labem 11,14.04207407,50.67678404
40301,Dolní Zálezly,14.04631894,50.59956445
40302,Ústí nad Labem 18,14.07383058,50.59405955
40313,Øehlovice,13.94793648,50.62294193
40317,Chabaøovice,13.93326635,50.66782600
40321,Ústí nad Labem 17,14.08137417,50.62092437
40322,Ústí nad Labem 20,14.10274078,50.65756018
40323,Velké Bøezno,14.18051674,50.65116573
40327,Maleèov u Ústí nad Labem,14.11896132,50.63314289
40331,Ústí nad Labem 16,14.10673389,50.68191167
40332,Povrly,14.15710809,50.68317558
40334,Velké Chvojno,14.04551886,50.73520178
40335,Libouchec,14.03581248,50.76053087
40336,Tisá,14.02137528,50.78935248
40337,Petrovice u Ústí n.Labem,13.95034692,50.77124779
40338,Telnice u Ústí nad Labem,13.95679527,50.72569477
40339,Chlumec u Ústí nad Labem,13.93510165,50.70295735
40340,Ústí nad Labem 19,14.00013072,50.70424707
40502,Dìèín 2,14.27206134,50.78487869
40505,Dìèín 5,14.12209242,50.80296245
40701,Jílové u Dìèína,14.11192542,50.75480061
40702,Modrá u Dìèína,14.08278945,50.76143469
40703,Dobkovice u Dìèína,14.18161371,50.70974042
40711,Dìèín 9,14.19938006,50.74034587
40713,Ludvíkovice,14.25277635,50.80534495
40714,Arnoltice u Dìèína,14.24613667,50.84105743
40715,Srbská Kamenice,14.34225719,50.82418815
40716,Jetøichovice u Dìèína,14.39265774,50.87210515
40717,Høensko,14.25232297,50.87459149
40721,Èeská Kamenice,14.42638334,50.78907127
40722,Benešov nad Plouènicí,14.30942028,50.74507033
40723,Františkov nad Plouènicí,14.33204739,50.72817269
40724,Valkeøice,14.32302711,50.70210862
40725,Verneøice,14.30993568,50.66395622
40729,Velká Bukovina u Dìèína,14.38554244,50.74002365
40741,Dobrná,14.29436346,50.77495675
40742,Markvartice u Dìèína,14.35524925,50.77957145
40744,Chøibská,14.48073592,50.86104060
40745,Kytlice,14.52669377,50.82234568
40746,Krásná Lípa u Rumburka,14.46354344,50.90832458
40747,Varnsdorf 1,14.62573110,50.90872007
40751,Rybništì,14.52346653,50.87208164
40752,Varnsdorf 3,14.56440543,50.90845376
40753,Jiøíkov,14.56579045,50.98768072
40755,Dolní Podluží,14.60066299,50.87196901
40756,Jiøetín pod Jedlovou,14.56892590,50.85651241
40757,Horní Podluží,14.55346554,50.88552630
40760,Brtníky,14.42834603,50.94376675
40761,Staré Køeèany,14.48970996,50.95460796
40777,Šluknov,14.46882001,51.00357003
40778,Velký Šenov,14.38944614,50.98849709
40779,Mikulášovice,14.36253600,50.96174006
40780,Vilémov u Šluknova,14.32614989,50.99120497
40781,Lipová u Šluknova,14.36142944,51.02043147
40782,Dolní Poustevna,14.29984070,51.01360602
40784,Lobendava,14.31088307,51.02028846
40801,Rumburk,14.53977194,50.95709746
41002,Lovosice 2,14.04268169,50.50461806
41101,Žalhostice,14.07596510,50.52386883
41103,Libochovany,14.04754277,50.56689885
41108,Štìtí,14.39955375,50.48361473
41111,Sulejovice,14.04106248,50.49691216
41112,Èížkovice,14.02960150,50.48469283
41113,Tøebenice,13.99237848,50.47320151
41114,Vlastislav,13.95476553,50.50347303
41115,Tøebívlice,13.94286271,50.47329940
41116,Klapý,13.99444375,50.43029399
41117,Libochovice,14.03273421,50.40783455
41118,Budynì nad Ohøí,14.13917447,50.40261021
41119,Mšené-láznì,14.11739370,50.36252230
41120,Øedhoš,14.08230010,50.34818979
41121,Vrbièany,14.08976377,50.46338411
41131,Velemín,13.96510934,50.54774869
41132,Milešov u Lovosic,13.91935202,50.53698078
41133,Prackovice nad Labem,14.02436613,50.56743671
41141,Žitenice,14.15824361,50.57003284
41142,Ploskovice,14.19648475,50.55678988
41145,Úštìk,14.31071824,50.58444156
41146,Libìšice u Litomìøic,14.29651906,50.56426102
41147,Polepy,14.27563623,50.50812845
41148,Køešice,14.22164689,50.52402262
41155,Terezín,14.15456671,50.51169655
41156,Bohušovice nad Ohøí,14.13821356,50.49474869
41162,Sukorady,14.42734660,50.52770116
41164,Vrbice u Roudnice n.Labem,14.27677267,50.48812760
41171,Chodouny,14.26226807,50.47361564
41172,Hoštka u Roudnice n.Labem,14.33582548,50.48795028
41173,Chcebuz,14.42410229,50.48033968
41174,Snìdovice,14.38674930,50.50340316
41181,Brozany nad Ohøí,14.13173335,50.45110932
41182,Doksany,14.16601716,50.45835936
41183,Hrobce,14.22230483,50.44913893
41184,Straškov-Vodochody,14.23996752,50.35314334
41185,Horní Beøkovice,14.35328335,50.36061197
41186,Bechlín,14.34224787,50.41931364
41187,Krabèice u Roudnice n.L.,14.29805385,50.40530960
41201,Litomìøice 1,14.16331616,50.54069655
41301,Roudnice nad Labem,14.23972777,50.41192081
41501,Teplice 1,13.84438984,50.63941817
41503,Teplice 3,13.80173970,50.63527522
41510,Teplice 10,13.85525260,50.66423663
41701,Dubí u Teplic 1,13.78779152,50.69566320
41702,Dubí u Teplic 2,13.80814109,50.67953536
41703,Dubí u Teplic 3,13.78304744,50.66804122
41704,Hrob,13.71955871,50.66038690
41705,Osek u Duchcova,13.66409028,50.64395703
41712,Proboštov u Teplic,13.83075793,50.67186283
41713,Modlany,13.89387212,50.65718474
41722,Háj u Duchcova,13.70634829,50.64024166
41723,Košany u Teplic,13.74659456,50.69340513
41724,Oldøichov u Duchcova,13.74822517,50.63458971
41725,Lahoš,13.76826792,50.62079715
41731,Novosedlice,13.81912538,50.65972868
41741,Krupka 3,13.86209217,50.70872239
41742,Krupka 1,13.88488354,50.67316562
41743,Krupka 4,13.89639552,50.69433914
41752,Hostomice nad Bílinou,13.80887647,50.58949816
41753,Svìtec,13.81290873,50.57047963
41754,Kostomlaty pod Milešovkou,13.87528831,50.55479662
41757,Hrobèice,13.78456184,50.51945033
41761,Bystøany,13.85794941,50.62425518
41762,Rtynì nad Bílinou,13.90811396,50.60258084
41763,Žalany,13.91235071,50.58245219
41765,Ohníè,13.84380074,50.58527768
41771,Zabrušany,13.79187597,50.60814016
41772,Ledvice,13.76332737,50.58763703
41781,Moldava v Krušných horách,13.67277249,50.69975569
41801,Bílina 1,13.75524751,50.55631559
41804,Bílina 4,13.82822894,50.51427589
41901,Duchcov,13.73074842,50.61883603
43001,Chomutov 1,13.38042645,50.47627749
43003,Chomutov 3,13.38731569,50.46855616
43004,Chomutov 4,13.41397961,50.48349830
43101,Spoøice,13.36861175,50.42878820
43102,Zelená,13.30876321,50.44241301
43111,Jirkov 1,13.47044087,50.48704592
43114,Strupèice,13.53245610,50.47419608
43115,Vrskmaò,13.50049066,50.50037939
43121,Boleboø,13.40799744,50.55295659
43132,Kalek,13.31664554,50.57473995
43141,Údlice,13.46222044,50.44516741
43143,Hrušovany u Chomutova,13.49096704,50.39100406
43144,Droužkovice,13.43144683,50.42337121
43145,Bøezno u Chomutova,13.39747478,50.39736345
43151,Klášterec nad Ohøí 1,13.16097989,50.39630873
43153,Pìtipsy,13.35707688,50.31962537
43154,Vilémov u Kadanì,13.32236160,50.29986620
43155,Radonice u Kadanì,13.28830123,50.29353918
43156,Mašov,13.27051322,50.25981106
43157,Chbany,13.43410998,50.33164928
43158,Místo,13.27088177,50.44604551
43159,Vysoká Pec,13.47678054,50.53592291
43163,Perštejn,13.09709216,50.38681371
43182,Hora Svatého Šebestiána,13.23852765,50.53301299
43183,Výsluní,13.21996226,50.47163455
43184,Mìdìnec,13.11274393,50.42046070
43186,Kováøská,13.06700700,50.43643814
43191,Vejprty,13.08254933,50.46099394
43201,Kadaò 1,13.23660895,50.33238306
43401,Most 1,13.64421041,50.48983434
43501,Havraò,13.59931102,50.44730409
43502,Most 9,13.62969231,50.52130254
43511,Lom u Mostu 1,13.64283765,50.62008560
43513,Meziboøí u Litvínova,13.59517019,50.63145179
43521,Obrnice,13.69223521,50.50634233
43522,Braòany,13.70717409,50.54007006
43524,Lužice u Mostu,13.75522416,50.49134071
43526,Beèov u Mostu,13.71782842,50.44041032
43532,Mariánské Radèice,13.67371637,50.57446959
43533,Louka u Litvínova,13.63713496,50.58784740
43542,Litvínov 8,13.56318082,50.59065130
43543,Horní Jiøetín,13.52284864,50.56463551
43545,Nová Ves v Horách,13.48657077,50.59703302
43546,Hora Svaté Kateøiny,13.42253398,50.59605397
43547,Brandov,13.38614911,50.62170415
43601,Litvínov 1,13.58030329,50.63565565
43801,Žatec 1,13.52221248,50.30311869
43901,Èernèice,13.84133311,50.35936838
43902,Cítoliby,13.80646931,50.33366230
43903,Chlumèany u Loun,13.83646284,50.33734158
43904,Høíškov,13.86437338,50.28663446
43905,Panenský Týnec,13.90431710,50.29597837
43906,Vrbno nad Lesy,13.91180685,50.32071501
43907,Peruc,13.97158358,50.34256344
43908,Pátek u Loun,13.94081999,50.37794337
43909,Slavìtín nad Ohøí,13.90851578,50.35232994
43914,Smolnice,13.84757009,50.31212906
43915,Vinaøice u Loun,13.82316449,50.26932647
43921,Koštice nad Ohøí,13.94119517,50.40846685
43922,Chožov,13.86314899,50.39828657
43923,Lenešice,13.75174566,50.38410216
43924,Raná u Loun,13.78627585,50.40924573
43926,Libèeves,13.83576550,50.44393429
43931,Mìcholupy u Žatce,13.54650619,50.26519515
43942,Postoloprty,13.70035056,50.36284172
43949,Staòkovice u Žatce,13.57799237,50.35866651
43965,Høivice,13.72481645,50.28343537
43967,Roèov,13.77190852,50.25001296
43968,Domoušice,13.70793043,50.23152603
43969,Tuchoøice,13.66279145,50.27985944
43971,Nepomyšl,13.31673549,50.22192430
43972,Krásný Dvùr,13.36309231,50.24856718
43975,Liboèany,13.50139819,50.33275527
43981,Kryry,13.43581371,50.17263047
43982,Vroutek,13.38051764,50.18541995
43983,Lubenec,13.30346976,50.12840981
43984,Blatno u Podboøan,13.38784625,50.09215430
43985,Petrohrad,13.44554500,50.12296812
43986,Strojetice,13.49082117,50.17346905
43987,Oèihov,13.45782089,50.19933681
43988,Blšany,13.47332215,50.22372672
44001,Louny 1,13.79685072,50.35499273
44101,Podboøany,13.33991722,50.19639097
46001,Liberec 1,14.99855028,50.78016714
46002,Liberec 2,15.03599016,50.73712649
46005,Liberec 5,15.07882451,50.76543707
46006,Liberec 6,15.06218435,50.74950800
46007,Liberec 7,15.04492222,50.75637617
46008,Liberec 8,15.00964478,50.73930668
46010,Liberec 10,15.00390586,50.76023729
46014,Liberec 14,15.08626178,50.79508303
46015,Liberec 15,15.11657560,50.76930922
46302,Liberec 33,14.97511200,50.78189833
46303,Stráž nad Nisou,15.02590792,50.79177985
46311,Liberec 30,15.09524132,50.73502870
46312,Liberec 25,15.05888703,50.71462283
46331,Chrastava,15.00873832,50.83022871
46334,Hrádek nad Nisou,14.86870460,50.84283268
46342,Hodkovice nad Mohelkou,15.10495513,50.66142432
46343,Èeský Dub,14.99732057,50.67691326
46344,Sychrov,15.07492113,50.62961497
46345,Pìnèín u Liberce,15.05191890,50.60334754
46346,Pøíšovice,15.07248671,50.57679566
46348,Všelibice,14.94386918,50.63480489
46352,Oseèná,14.90957218,50.68622500
46353,Køižany,14.86925350,50.76207392
46361,Raspenava,15.13188916,50.88853468
46362,Hejnice,15.23004871,50.86085662
46365,Nové Mìsto pod Smrkem,15.23679553,50.93188011
46367,Øasnice,15.19249653,50.96216228
46373,Habartice u Frýdlantu,15.05947354,50.99608412
46401,Frýdlant v Èechách,15.07158177,50.94097367
46601,Jablonec nad Nisou 1,15.17929787,50.72008268
46602,Jablonec nad Nisou 2,15.18944576,50.73959788
46604,Jablonec nad Nisou 4,15.17370252,50.74681150
46605,Jablonec nad Nisou 5,15.14437255,50.74518596
46606,Jablonec nad Nisou 6,15.17521193,50.70921294
46801,Jablonec nad Nisou 8,15.18547021,50.69906123
46802,Rychnov u Jablonce n.Nis.,15.15146039,50.68035558
46803,Rádlo,15.12903154,50.70585338
46804,Jablonec nad Nisou 7,15.12759820,50.73206230
46811,Janov nad Nisou,15.16691701,50.77393224
46812,Bedøichov u Jablonce n.N.,15.16141803,50.81356855
46821,Bratøíkov,15.23266853,50.68619068
46822,Železný Brod,15.24372341,50.65254873
46824,Držkov,15.30189265,50.68926467
46825,Zásada,15.27356613,50.70095139
46826,Hu,15.23803302,50.70103283
46827,Nová Ves nad Nisou,15.21638315,50.72493666
46833,Jenišovice u Jabl.n.N.,15.13237790,50.63207782
46841,Tanvald,15.30103883,50.74068450
46843,Albrechtice v Jiz.horách,15.27008187,50.78615003
46844,Josefùv Dùl u Jabl.n.N.,15.21594624,50.78575578
46845,Velké Hamry,15.30452714,50.71953494
46846,Plavy,15.32206680,50.70422304
46847,Zlatá Olešnice,15.35209545,50.69948095
46848,Pøíchovice,15.35643463,50.74165831
46849,Koøenov,15.37301903,50.76621354
46850,Polubný,15.33441402,50.81691431
46851,Smržovka,15.24994924,50.73040785
46861,Desná v Jizer.horách,15.31951792,50.77284439
46871,Luèany nad Nisou,15.21367941,50.74509919
47001,Èeská Lípa 1,14.53882621,50.67321634
47002,Èeská Lípa 2,14.50786949,50.65557296
47006,Èeská Lípa 6,14.54785460,50.69385429
47101,Zahrádky u Èeské Lípy,14.51659053,50.63469929
47102,Stvolínky,14.43324070,50.63387828
47103,Kravaøe u Èeské Lípy,14.38669082,50.63028125
47104,Blíževedly,14.40238773,50.60885199
47105,Valteøice,14.40986467,50.67781386
47106,Horní Police,14.39813003,50.69596856
47107,Žandov u Èeské Lípy,14.40277836,50.72055783
47108,Jezvé,14.42863217,50.68843400
47111,Horní Libchava u Èes.Lípy,14.49582843,50.71476197
47112,Volfartice,14.44797564,50.73460067
47113,Nový Oldøichov,14.44128113,50.76269910
47114,Kamenický Šenov,14.47564246,50.77268033
47115,Prysk,14.48645313,50.79710706
47116,Polevsko,14.53781754,50.78894619
47117,Skalice u Èeské Lípy,14.51742029,50.74321008
47118,Pihel,14.55795957,50.72420764
47121,Dobranov,14.60449280,50.68862626
47123,Zákupy,14.64857558,50.68237358
47124,Mimoò,14.78400546,50.62484625
47125,Jablonné v Podještìdí,14.75417228,50.77779639
47126,Dubnice pod Ralskem,14.81118596,50.73323436
47127,Stráž pod Ralskem,14.79866051,50.69475704
47128,Hamr u Èeské Lípy,14.85675044,50.70098836
47129,Brništì,14.71456022,50.71646620
47141,Dubá,14.53195270,50.53725189
47151,Svor,14.58507318,50.80766380
47152,Sloup v Èechách,14.59267609,50.74113368
47153,Svojkov,14.59947492,50.71813121
47154,Cvikov,14.62899589,50.78477325
47155,Kunratice u Cvikova,14.68633523,50.76890972
47156,Maøenice,14.66456979,50.80541285
47157,Krompach v Èechách,14.65693996,50.83389865
47158,Lindava,14.65238588,50.74594190
47161,Jestøebí,14.57268760,50.60599345
47162,Okna,14.65792822,50.52835172
47163,Staré Splavy,14.61859634,50.59175344
47167,Provodín,14.59198724,50.62835588
47201,Doksy,14.59905072,50.54818392
47301,Nový Bor,14.55969113,50.75263281
50002,Hradec Králové 2,15.81628677,50.19384919
50003,Hradec Králové 3,15.87604933,50.23931739
50004,Hradec Králové 4,15.78037440,50.19605565
50006,Hradec Králové 6,15.85318705,50.18881397
50008,Hradec Králové 8,15.84816483,50.17540561
50009,Hradec Králové 9,15.89082129,50.18967161
50011,Hradec Králové 11,15.82646214,50.18408617
50012,Hradec Králové 12,15.84014648,50.19569250
50301,Hradec Králové 16,15.80509321,50.23711821
50302,Pøedmìøice nad Labem,15.81657062,50.26839373
50303,Smiøice,15.84005841,50.30183497
50304,Èernožice nad Labem,15.87141123,50.32076583
50305,Lužany nad Trotinou,15.79233061,50.33893162
50306,Hoøinìves,15.76888416,50.30762665
50311,Hradec Králové 15,15.77629524,50.22435223
50312,Všestary,15.75125304,50.25856383
50313,Dohalice,15.69587641,50.28644384
50314,Straèov,15.64086410,50.30174107
50315,Nechanice,15.64470720,50.26017558
50316,Dolní Pøím,15.70107272,50.23960695
50321,Stìžery,15.75165578,50.21227147
50322,Libèany,15.69310263,50.19052990
50323,Boharynì,15.62285111,50.20341195
50324,Kratonohy,15.60753754,50.16636421
50325,Dobøenice,15.63682375,50.14923953
50326,Osice,15.68914564,50.13918869
50327,Lhota pod Libèany,15.69195020,50.17876136
50331,Vysoká nad Labem,15.83997821,50.15265510
50332,Hradec Králové 22,15.79780392,50.17711746
50333,Praskaèka,15.74327508,50.17060603
50341,Hradec Králové 7,15.83829302,50.23793775
50343,Èernilov,15.93133953,50.26331071
50344,Libøice,15.96285191,50.29041707
50346,Tøebechovice pod Orebem,15.97216082,50.20588435
50351,Chlumec nad Cidlinou,15.47343355,50.16538516
50352,Skøivany u Nového Bydžova,15.51066564,50.27362549
50353,Smidary,15.48306535,50.29366238
50354,Ohnišany,15.51914062,50.32225567
50355,Petrovice u Nov.Bydžova,15.58752378,50.28718723
50356,Hlušice,15.40521729,50.26330349
50357,Starý Bydžov,15.45048005,50.25761111
50361,Lovèice u Nového Bydžova,15.38516854,50.16282368
50362,Lužec nad Cidlinou,15.42029666,50.21129371
50363,Nepolisy,15.45679630,50.19421281
50364,Mìník,15.52295437,50.21399547
50365,Kosièky,15.56223259,50.17848023
50366,Káranice,15.56134723,50.15408113
50401,Nový Bydžov,15.52290756,50.23378307
50601,Jièín 1,15.32010590,50.43153253
50702,Žeretice,15.40659567,50.35655782
50703,Vysoké Veselí,15.41859924,50.32843435
50704,Tøtìnice,15.45957061,50.37641772
50705,Konecchlumí,15.49034373,50.40290369
50706,Lužany u Jièína,15.47708247,50.43542306
50707,Úlibice,15.43849870,50.43401740
50711,Valdice,15.38922851,50.45369318
50712,Radim u Jièína,15.42667673,50.46025655
50713,Železnice,15.39981991,50.47176828
50715,Libuò,15.30058172,50.49863653
50721,Veliš u Jièína,15.31876888,50.40116167
50722,Støevaè,15.26085986,50.40616581
50723,Libáò,15.20045657,50.37581922
50724,Dìtenice,15.15677206,50.36252009
50731,Jièínìves,15.34151494,50.37102906
50732,Kopidlno,15.27507322,50.31977887
50733,Vršce,15.32562485,50.32890047
50734,Žlunice,15.38064262,50.30085691
50742,Markvartice u Sobotky,15.19781563,50.42874602
50743,Sobotka,15.18553380,50.44642736
50744,Libošovice,15.16693287,50.49581248
50745,Mladìjov v Èechách,15.22530225,50.48100839
50752,Ostromìø,15.54367182,50.37654306
50753,Chomutice u Hoøic v Podkr,15.48317446,50.36204240
50754,Podhorní Újezd,15.51938140,50.38462239
50758,Mlázovice,15.51990572,50.41178570
50759,Šárovcova Lhota,15.56409346,50.40485125
50771,Miletín,15.66886462,50.41785005
50773,Dobrá Voda u Hoøic,15.60256689,50.34841659
50777,Cerekvice nad Bystøicí,15.72467333,50.33333331
50781,Láznì Bìlohrad,15.56209128,50.43484851
50782,Pecka,15.60749363,50.47919458
50791,Stará Paka,15.48212193,50.52927740
50792,Úbislavice,15.46295087,50.47168292
50801,Hoøice v Podkrkonoší,15.60510836,50.35695913
50901,Nová Paka,15.51303344,50.48778548
51101,Turnov 1,15.17730395,50.57251389
51201,Slaná u Semil,15.34234860,50.58348007
51202,Košálov,15.39199525,50.56940532
51203,Libštát,15.42276406,50.55880708
51204,Møíèná,15.46511378,50.60509429
51206,Benešov u Semil,15.37470372,50.61013456
51211,Vysoké nad Jizerou,15.40591606,50.68455813
51212,Jesenný,15.34737127,50.66064642
51213,Bozkov,15.33935812,50.64042518
51231,Roztoky u Jilemnice,15.50689155,50.56849522
51232,Martinice v Krkonoších,15.53452948,50.57736643
51233,Studenec u Horek,15.54379856,50.55244481
51234,Horka u Staré Paky,15.57413848,50.52775596
51235,Èistá u Horek,15.60143717,50.53429971
51236,Horní Branná,15.56299976,50.59950976
51237,Benecko,15.55680176,50.66765060
51238,Vítkovice v Krkonoších,15.53764712,50.71573717
51241,Víchová nad Jizerou,15.48279294,50.63576466
51242,Poniklá,15.45338350,50.65776961
51243,Jablonec nad Jizerou,15.44964425,50.70414958
51244,Rokytnice nad Jizerou 1,15.43648607,50.73449426
51245,Rokytnice nad Jizerou 3,15.49574121,50.74558372
51246,Harrachov v Krkonoších,15.44912101,50.77538123
51247,Paseky nad Jizerou,15.39436516,50.73917859
51251,Lomnice nad Popelkou,15.36920002,50.53720875
51252,Veselá u Semil,15.31480876,50.54982942
51253,Tatobity,15.27836968,50.57238396
51261,Pøepeøe,15.11081322,50.58419130
51263,Rovensko pod Troskami,15.25635284,50.53657625
51264,Vyskeø,15.16135885,50.53060686
51265,Všeò,15.10426372,50.54824889
51271,Nová Ves nad Popelkou,15.41138056,50.52114211
51301,Semily,15.35979597,50.63215529
51401,Jilemnice,15.51068873,50.60536292
51601,Rychnov nad Knìžnou,16.33883119,50.20539259
51603,Lukavice,16.30353268,50.20059567
51701,Solnice,16.23621647,50.20346961
51702,Kvasiny,16.26696363,50.21130837
51703,Skuhrov nad Bìlou,16.29188047,50.24439428
51704,Èerníkovice,16.19671654,50.19420270
51711,Javornice,16.35383297,50.17027363
51712,Liberk,16.34966986,50.20447968
51721,Týništì nad Orlicí,16.08506157,50.15889092
51722,Albrechtice nad Orlicí,16.04225036,50.14021794
51723,Žïár nad Orlicí,16.06820102,50.11904524
51724,Borohrádek,16.09362356,50.09753632
51725,Èermná nad Orlicí,16.15109171,50.08179396
51731,Bolehoš,16.08654812,50.20947327
51732,Pøepychy,16.10692426,50.23287986
51733,Trnov u Dobrušky,16.16694652,50.24461638
51734,Vodìrady u Rychnova n.Kn.,16.14915020,50.20713485
51735,Lièno,16.17254969,50.17736378
51736,Olešnice u Rychnova n.Kn.,16.15142646,50.14941569
51741,Kostelec nad Orlicí,16.22093693,50.09790452
51742,Doudleby nad Orlicí,16.25893540,50.10666215
51743,Potštejn,16.30896431,50.08441472
51745,Chleny,16.25721933,50.07641689
51750,Èastolovice,16.17869122,50.13403578
51754,Vamberk,16.31658473,50.11054927
51755,Rybná nad Zdobnicí,16.36647725,50.11732985
51756,Slatina nad Zdobnicí,16.40433545,50.13520847
51757,Pìèín u Rychnova n.Knìž.,16.43089144,50.15733764
51761,Rokytnice v Orl.horách,16.49467314,50.19303437
51764,Orlické Záhoøí,16.45689608,50.27609048
51771,Èeské Meziøíèí,16.03764538,50.26061932
51772,Jílovice u Dobrušky,16.00985036,50.25167282
51773,Opoèno,16.10241352,50.26488034
51783,Olešnice v Orlických hor.,16.32759750,50.36762564
51784,Ohnišov,16.22414260,50.32004440
51791,Deštné v Orlických horách,16.35055795,50.31434251
51792,Kounov u Dobrušky,16.26666610,50.30104468
51793,Dobré,16.26717331,50.26821831
51801,Dobruška,16.21008095,50.28698399
51803,Podbøezí,16.20916518,50.25859653
53002,Pardubice 2,15.82080079,50.01363441
53003,Pardubice 3,15.80056273,50.02461202
53006,Pardubice 6,15.71092498,50.02155428
53009,Pardubice 9,15.76483955,50.05088254
53012,Pardubice 12,15.82531347,50.04626699
53301,Pardubice 21,15.83149450,50.02603699
53303,Dašice v Èechách,15.90938146,50.03345056
53304,Sezemice,15.86098936,50.08034325
53305,Døíteè,15.81638815,50.10546621
53311,Zdechovice,15.46643063,50.01594803
53312,Chvaletice,15.41300833,50.02923880
53313,Øeèany nad Labem,15.47480925,50.03882311
53314,Kladruby nad Labem,15.47519279,50.05768716
53315,Hlaveèník,15.42308401,50.07231779
53316,Vápno u Pøelouèe,15.51773752,50.10028748
53321,Vysoké Chvojno,15.98449688,50.11813491
53322,Býš,15.91355860,50.12971689
53331,Lány na Dùlku,15.67393576,50.03176914
53332,Èepí,15.71513035,49.98604309
53333,Pardubice 23,15.77201612,50.00560422
53341,Láznì Bohdaneè,15.63865259,50.09506944
53342,Živanice,15.64536130,50.05397797
53343,Rohovládova Bìlá,15.60438451,50.10462764
53344,Staré Ždánice,15.71589696,50.12375678
53345,Opatovice nad Labem,15.75140165,50.12493297
53351,Pardubice 17,15.73093830,50.04800122
53352,Staré Hradištì u Pardubic,15.79313070,50.09078588
53353,Pardubice 19,15.75015668,50.06418760
53354,Pardubice 20,15.69817214,50.05198689
53361,Choltice,15.62880784,49.98994490
53362,Svojšice u Pøelouèe,15.60230530,49.96618795
53363,Turkovice u Pøelouèe,15.55483268,49.95551340
53364,Lipoltice,15.56794716,49.98521641
53371,Dolní Roveò,15.99433954,50.02539036
53372,Moravany u Holic,15.93450606,49.99777957
53373,Uhersko,16.02143343,49.99629410
53374,Horní Jelení,16.08965351,50.05080831
53375,Dolní Øedice,15.93660020,50.07729130
53401,Holice v Èechách,16.00793925,50.07477028
53501,Pøelouè,15.55460546,50.01548939
53701,Chrudim 1,15.78760957,49.95359973
53703,Chrudim 3,15.80081805,49.94075427
53705,Chrudim 5,15.81260512,49.95646673
53801,Bylany,15.73133357,49.95667894
53802,Morašice u Chrudimì,15.70800470,49.93408243
53803,Heømanùv Mìstec,15.65329651,49.92627838
53804,Prachovice,15.63073593,49.89426801
53805,Seè 3,15.63290493,49.87055253
53807,Seè 1,15.67119792,49.84324732
53821,Slatiòany,15.78406325,49.89338020
53823,Liciboøice,15.78088306,49.87377914
53824,Svídnice u Chrudimì,15.81287774,49.88843171
53825,Nasavrky,15.79621958,49.82889025
53826,Bojanov,15.70714270,49.84019426
53831,Medlešice,15.77048136,49.97555169
53832,Úhøetice,15.86353844,49.97919421
53833,Trojovice,15.91272462,49.93646394
53834,Rosice u Chrasti,15.95767069,49.91750600
53835,Zajeèice,15.88579108,49.90443773
53836,Žumberk,15.86424916,49.87558336
53841,Podhoøany u Ronova n.Doub,15.53759723,49.93896330
53842,Ronov nad Doubravou,15.53290929,49.88340174
53843,Tøemošnice,15.56974299,49.86578167
53845,Bìstvina,15.60661066,49.83294237
53851,Chrast u Chrudimì,15.92091369,49.88540480
53854,Luže,16.03782274,49.89981229
53861,Koèí,15.85301058,49.94485973
53862,Hrochùv Týnec,15.91832299,49.95435760
53863,Chroustovice,16.01648893,49.95763879
53864,Jenišovice u Chrudimì,16.02827991,49.93104592
53865,Øepníky,16.08267993,49.90187945
53901,Hlinsko v Èechách 1,15.90244736,49.76609182
53941,Kamenièky,15.97395564,49.73371595
53942,Svratouch,16.04652823,49.72529568
53943,Krouna,16.03200076,49.77021042
53944,Proseè u Skutèe,16.10670320,49.81662769
53945,Nové Hrady u Skutèe,16.14295916,49.84550442
53952,Trhová Kamenice,15.81924690,49.78949238
53953,Horní Bradlo,15.74448272,49.80475819
53955,Miøetice u Hlinska,15.88787508,49.84023257
53956,Vrbatùv Kostelec,15.94102542,49.85343406
53957,Vèelákov,15.88894524,49.82025941
53961,Vortová,15.93722177,49.70182361
53962,Hlinsko v Èechách 3,15.86912829,49.71692892
53971,Holetín,15.91920591,49.79420642
53972,Raná u Hlinska,15.95428444,49.79302955
53973,Skuteè,16.00332381,49.84252170
53974,Pøedhradí,16.02522636,49.82546412
53976,Prosetín u Hlinska,15.95457750,49.83079069
54101,Trutnov 1,15.90712672,50.57762763
54102,Trutnov 4,15.87368596,50.58594579
54103,Trutnov 3,15.95486174,50.57191455
54201,Žacléø 1,15.91107871,50.66690750
54203,Královec,15.97471051,50.67399369
54204,Bernartice u Trutnova,15.98352283,50.64022988
54211,Chvaleè,16.03999674,50.59193193
54212,Radvanice v Èechách,16.04991027,50.56532459
54213,Jívka,16.10474874,50.56276674
54221,Pec pod Snìžkou 1,15.74207602,50.69491017
54223,Mladé Buky,15.84481770,50.61893906
54224,Svoboda nad Úpou,15.81276164,50.63688777
54225,Janské Láznì,15.76144109,50.63961209
54226,Horní Maršov,15.83383319,50.67461394
54227,Malá Úpa,15.79081564,50.72792329
54232,Úpice,16.00011268,50.52065198
54233,Rtynì v Podkrkonoší,16.08088539,50.50762768
54234,Malé Svatoòovice,16.08888384,50.56242916
54235,Velké Svatoòovice,16.02842911,50.53757458
54236,Libòatov,16.00021505,50.47918189
54237,Batòovice,16.04713336,50.51806218
54238,Havlovice nad Úpou,16.04676314,50.48990340
54242,Pilníkov,15.82425049,50.53032984
54301,Vrchlabí 1,15.60514267,50.62749429
54302,Vrchlabí 4,15.59524545,50.65721637
54303,Vrchlabí 3,15.62019863,50.60041873
54341,Lánov,15.66002237,50.61200287
54342,Dolní Dvùr,15.66971609,50.66883730
54344,Èerný Dùl,15.70806624,50.64463309
54351,Špindlerùv Mlýn,15.61160975,50.73236792
54352,Strážné,15.63799104,50.68140810
54361,Kunèice nad Labem,15.62722278,50.58411584
54362,Dolní Branná,15.59526961,50.59198548
54371,Hostinné,15.71003875,50.53677766
54372,Rudník u Vrchlabí,15.74143666,50.59399467
54373,Proseèné,15.68702625,50.56663625
54374,Dolní Kalná,15.63510839,50.54515456
54375,Dolní Olešnice,15.73284673,50.51230590
54376,Chotìvice,15.76608173,50.50708764
54377,Èermná u Vrchlabí,15.77590570,50.54797798
54401,Dvùr Králové nad Labem 1,15.82095702,50.43270041
54404,Dvùr Králové nad Labem 4,15.85106014,50.41041677
54442,Choustníkovo Hradištì,15.87783100,50.43158325
54443,Kuks,15.89269445,50.39699542
54451,Doubravice u Dv.Kr.n.L.,15.76472658,50.40665793
54452,Bílé Polièany,15.73395302,50.39316578
54454,Velký Vøešov,15.74898479,50.35483631
54455,Dubenec u Dv.Králové n.L.,15.79574790,50.38244300
54461,Nemojov u Dv.Králové n.L.,15.76142745,50.47018149
54462,Vítìzná-Kocléøov,15.80492116,50.49399194
54464,Kocbeøe,15.86190830,50.46400712
54466,Hajnice,15.91408511,50.48785665
54472,Bílá Tøemešná,15.73946220,50.45013774
54474,Horní Brusnice,15.66348086,50.46949564
54475,Mostek,15.68252322,50.48471407
54477,Borovnice u Staré Paky,15.61027368,50.51341216
54701,Náchod 1,16.16274952,50.41551565
54901,Nové Mìsto nad Metují 1,16.14403683,50.34949134
54906,Bohuslavice nad Metují,16.08823913,50.30978576
54907,Nahoøany nad Metují,16.08345014,50.35031349
54908,Provodov-Šonov,16.12356710,50.38396385
54911,Dolní Radechová,16.15107261,50.43748184
54912,Vysokov,16.11880700,50.40497423
54921,Èeská Èermná,16.22919416,50.39311695
54922,Nový Hrádek,16.24454896,50.36378487
54923,Mezilesí,16.21511006,50.35943462
54931,Hronov 1,16.19405926,50.50603469
54932,Velké Poøíèí,16.19275906,50.46184128
54934,Hronov 4,16.17824621,50.50214942
54936,Stárkov,16.15116628,50.53188818
54937,Žïárky,16.23074805,50.46889183
54941,Èervený Kostelec,16.10167417,50.46796586
54946,Horní Radechová,16.14504342,50.46912619
54947,Slatina nad Úpou,16.03628100,50.45878530
54948,Studnice u Náchoda,16.09215643,50.41774068
54952,Horní Adršpach,16.07320219,50.62344139
54954,Police nad Metují,16.23757865,50.54729051
54955,Žïár nad Metují,16.20592396,50.54830153
54956,Èeská Metuje,16.18753991,50.54279825
54957,Teplice nad Metují,16.14850767,50.60784772
54962,Suchý Dùl,16.27329384,50.54093009
54963,Machov,16.26313482,50.49682153
54964,Bezdìkov nad Metují,16.22800128,50.50737639
54971,Šonov u Broumova,16.40462862,50.59422160
54972,Otovice u Broumova,16.38447636,50.55965204
54973,Martínkovice,16.34903834,50.54467144
54974,Božanov,16.35506165,50.52220097
54981,Mezimìstí u Broumova 1,16.24387933,50.62873727
54982,Mezimìstí u Broumova 4,16.20894411,50.62025930
54983,Mezimìstí u Broumova 3,16.25796121,50.63344000
54984,Broumov 5,16.32492743,50.63854385
55001,Broumov 1,16.32356215,50.58299721
55101,Jaromìø 1,15.93348835,50.34303978
55102,Jaromìø 3,15.93437014,50.34658911
55201,Dolany u Jaromìøe,15.95783542,50.37763865
55202,Velký Tøebešov,16.00666054,50.39673632
55203,Èeská Skalice,16.05206402,50.39597495
55204,Chvalkovice v Èechách,15.96719425,50.40910256
55205,Hoøièky,15.98704078,50.44542803
55211,Velichovky,15.82579383,50.35179878
55212,Heømanice nad Labem,15.91547588,50.38848197
55221,Rasošky,15.91737990,50.32268762
55222,Jasenná,15.99263138,50.31718656
55224,Velká Jesenice,16.03328487,50.36528411
55225,Rychnovek,15.97273709,50.35566905
56002,Èeská Tøebová 2,16.44430372,49.90215534
56101,Hnátnice,16.44492836,50.01660717
56102,Dolní Dobrouè,16.50490452,49.98579055
56112,Brandýs nad Orlicí,16.28707371,50.00235262
56113,Sudslava,16.28826246,50.04005945
56114,Èeské Libchavy,16.37499549,50.03417427
56115,Sopotnice,16.35017857,50.05681199
56116,Libchavy,16.39450058,50.00440122
56117,Dlouhá Tøebová,16.43599288,49.94113661
56118,Nìmèice u Èeské Tøebové,16.35171415,49.89383822
56122,Ostrov u Lanškrouna,16.53820668,49.93315634
56123,Damníkov,16.57328740,49.87089972
56124,Tøebovice u Lanškrouna,16.50049037,49.86454224
56125,Rudoltice,16.55507177,49.89933363
56131,Tatenice,16.71668645,49.87679749
56132,Cotkytle,16.72123664,49.93546491
56133,Horní Heømanice v Èechách,16.71317721,49.96352009
56134,Výprachtice,16.66407595,49.98927137
56141,Øetová,16.37217241,49.94914753
56151,Letohrad,16.50799210,50.03776318
56152,Vermìøovice,16.56367671,50.00619986
56153,Dolní Èermná,16.56725722,49.97951623
56154,Bystøec,16.62133009,50.00934234
56155,Orlièky,16.67955926,50.03559758
56156,Horní Èermná,16.60665564,49.97536490
56161,Èervená Voda 1,16.72863358,50.03788266
56162,Èervená Voda 3,16.76090645,50.03160947
56163,Nekoø,16.55534529,50.06207630
56164,Jablonné nad Orlicí,16.61528914,50.05283650
56165,Jamné nad Orlicí,16.63987760,50.04118703
56166,Tìchonín,16.64469413,50.06571501
56167,Mladkov,16.63328101,50.09263136
56168,Lichkov,16.66903027,50.09133665
56169,Králíky,16.77573358,50.09888591
56170,Píseèná u Žamberka,16.44584866,50.04797264
56181,Kunvald v Èechách,16.49423497,50.12467916
56182,Klášterec nad Orlicí,16.55480836,50.12302004
56184,Líšnice,16.52067623,50.08271053
56185,Èeská Rybná u Žamberka,16.38810372,50.07170039
56186,Záchlumí 1,16.38652985,50.10107897
56201,Ústí nad Orlicí 1,16.37117894,49.98824845
56203,Ústí nad Orlicí 3,16.41482585,49.95981449
56204,Ústí nad Orlicí 4,16.36260609,49.97274142
56206,Ústí nad Orlicí 6,16.41548107,49.97414601
56301,Lanškroun,16.64377737,49.91741395
56401,Žamberk,16.48252476,50.09511094
56501,Choceò 1,16.21138252,50.01142826
56542,Vraclav,16.09614189,49.96529426
56543,Zámrsk,16.12080348,49.98701048
56544,Sruby,16.17512987,49.99515010
56552,Èeské Heømanice,16.25399492,49.93181755
56553,Sloupnice,16.32171373,49.92779840
56555,Hrušová u Vysokého Mýta,16.18931571,49.91191947
56601,Vysoké Mýto,16.16525493,49.94221320
56802,Svitavy 2,16.48110947,49.74740990
56901,Hradec nad Svitavou,16.48692435,49.70970637
56902,Bøezová nad Svitavou,16.51389489,49.65477209
56903,Rozhraní,16.52743167,49.59979885
56904,Brnìnec,16.52035179,49.63016270
56905,Bìlá nad Svitavou,16.48383285,49.63822961
56906,Vítìjeves,16.46667655,49.61229017
56907,Radimìø,16.41934619,49.69811332
56911,Koclíøov u Svitav,16.54229702,49.76752336
56912,Opatov v Èechách,16.49480339,49.83028628
56914,Vendolí,16.41548707,49.73581028
56921,Moravská Tøebová 3,16.60707349,49.74152501
56922,Køenov,16.61709906,49.68195519
56923,Bøezina u Morav.Tøebové,16.60300976,49.65017395
56924,Kunèina,16.61105254,49.79278560
56932,Staré Mìsto u Mor.Tøebové,16.68793164,49.80001575
56933,Tøebaøov,16.70514530,49.82904932
56934,Rychnov na Moravì,16.63849828,49.83480282
56935,Mladìjov na Moravì,16.58800575,49.82216680
56941,Mìsteèko Trnávka,16.72022519,49.71234817
56942,Chornice,16.73908952,49.66871326
56943,Jevíèko,16.69895723,49.66516410
56944,Jaromìøice u Jevíèka,16.76399687,49.62213342
56951,Morašice u Litomyšle,16.22259275,49.86498033
56953,Cerekvice nad Louènou,16.22198125,49.89851593
56955,Janov u Litomyšle,16.38409901,49.83972533
56956,Èistá u Litomyšle,16.35426342,49.81776640
56957,Trstìnice u Litomyšle,16.33742015,49.78800135
56961,Dolní Újezd u Litomyšle,16.26275733,49.81518818
56962,Sebranice u Litomyšle,16.26321612,49.76911459
56963,Lubná u Polièky,16.19761547,49.77123438
56965,Budislav u Litomyšle,16.16439486,49.79469435
56966,Jarošov u Litomyšle,16.16273492,49.81905524
56967,Osík u Litomyšle,16.28410515,49.84614452
56971,Pomezí,16.32614070,49.71329460
56972,Rohozná u Polièky,16.40488205,49.65733727
56973,Svojanov,16.40721248,49.62875269
56974,Trpín,16.39617243,49.59444413
56982,Borová u Polièky,16.13178957,49.73966844
56991,Jedlová u Polièky,16.32104999,49.66091223
56992,Bystré u Polièky,16.36759411,49.62460411
56993,Korouhev,16.25842858,49.66408860
56994,Telecí,16.17420790,49.69255111
57001,Litomyšl,16.27914371,49.84899348
57101,Moravská Tøebová 1,16.72632756,49.74509655
57201,Polièka,16.24758787,49.71223023
58001,Havlíèkùv Brod 1,15.56589371,49.61073885
58221,Pohled,15.64898589,49.60930657
58222,Pøibyslav,15.72789392,49.58887745
58223,Havlíèkova Borová,15.79607132,49.63965691
58224,Oudoleò,15.75617074,49.66444242
58231,Okrouhlice,15.49267757,49.63069808
58232,Lipnice nad Sázavou,15.41124399,49.61342786
58233,Dolní Mìsto,15.37474739,49.63009583
58234,Krásná Hora u Havl.Brodu,15.47132434,49.60212774
58235,Luèice,15.50102478,49.66296304
58241,Skuhrov u Havl.Brodu,15.52620811,49.68970774
58242,Kámen u Habrù,15.52117772,49.71582231
58243,Tis u Chotìboøe,15.49055970,49.70475755
58244,Sázavka,15.41723059,49.73709458
58245,Uhelná Pøíbram,15.58969181,49.76960612
58251,Šlapanov,15.65147220,49.54166481
58252,Vìžnice u Havl.Brodu,15.68584579,49.52035157
58253,Štoky,15.55811888,49.51187779
58254,Úsobí,15.50189820,49.51675980
58255,Herálec u Havl.Brodu,15.44765242,49.53187521
58256,Vìž,15.45811364,49.56711274
58257,Lípa u Havlíèkova Brodu,15.53685162,49.55545579
58261,Èeská Bìlá,15.69197453,49.65046941
58262,Sobíòov,15.77198057,49.69839973
58263,Ždírec nad Doubravou,15.81797898,49.69692635
58264,Horní Studenec,15.78786792,49.71691722
58265,Slavíkov,15.78000248,49.74556437
58266,Krucemburk,15.85746835,49.69118793
58271,Dolní Krupá u Havl.Brodu,15.60884853,49.66098848
58272,Rozsochatec,15.63628595,49.68432298
58273,Nová Ves u Chotìboøe,15.64643025,49.74934753
58274,Jeøišno,15.64207275,49.79215950
58276,Maleè,15.67502382,49.76838561
58277,Libice nad Doubravou,15.70496325,49.74469325
58281,Habry,15.48313308,49.75395312
58282,Golèùv Jeníkov,15.50229727,49.79214057
58283,Vilémov u Golè.Jeníkova,15.52954593,49.80825179
58286,Leština u Svìtlé n.Sáz.,15.39551939,49.77096422
58287,Èíhoš,15.33811994,49.73849614
58291,Svìtlá nad Sázavou,15.41744678,49.68062087
58292,Kamenná Lhota,15.27797330,49.64506881
58293,Kožlí,15.24998705,49.66401871
58294,Hnìvkovice u Ledèe n.Sáz.,15.20269653,49.68602248
58301,Chotìboø,15.67307393,49.72943028
58401,Ledeè nad Sázavou,15.28911804,49.70081291
58601,Jihlava 1,15.58188878,49.39991962
58602,Jihlava 2,15.58134461,49.46239696
58603,Jihlava 3,15.63078718,49.40058312
58801,Smrèná,15.53780969,49.47031996
58805,Dušejov,15.41469483,49.41402152
58811,Støítež u Jihlavy,15.62691241,49.46140173
58812,Dobronín,15.64556686,49.48325111
58813,Polná,15.72477839,49.48562338
58821,Velký Beranov,15.68848794,49.40689689
58822,Luka nad Jihlavou,15.72663999,49.36310110
58823,Kamenice u Jihlavy,15.78610010,49.36234217
58824,Øehoøov,15.78855873,49.39891443
58825,Jersín,15.82763654,49.42297177
58826,Zhoø u Jihlavy,15.76470631,49.44266233
58827,Jamné u Jihlavy,15.78587199,49.42790658
58831,Puklice,15.65713860,49.36446171
58832,Brtnice,15.66342701,49.31011089
58833,Stonaøov,15.57952637,49.28447326
58834,Dlouhá Brtnice,15.60022884,49.23534734
58835,Vílanec,15.55885042,49.33766986
58841,Vyskytná nad Jihlavou,15.49415526,49.42397249
58842,Vìtrný Jeníkov,15.44897676,49.46531420
58844,Rohozná u Jihlavy,15.39637107,49.35136546
58845,Dolní Cerekev,15.43505507,49.34175165
58851,Batelov,15.37333361,49.29022075
58852,Horní Dubenky,15.32933623,49.25927326
58854,Mrákotín,15.36398543,49.20146616
58856,Telè,15.47855693,49.17995016
58861,Kostelec u Jihlavy,15.47284298,49.36165748
58862,Urbanov,15.50850490,49.21653155
58864,Krasonice,15.61423719,49.11948799
58865,Nová Øíše,15.56370760,49.14245799
58866,Rozseè u Tøešti,15.62273664,49.15630883
58867,Stará Øíše,15.58983858,49.18048614
58901,Tøeš,15.48656971,49.28936834
59101,Žïár nad Sázavou 1,15.96531428,49.56581830
59102,Žïár nad Sázavou 2,15.93600754,49.62240968
59201,Herálec pod Žákovou horou,15.98591409,49.68103966
59202,Svratka,16.04855815,49.68992193
59203,Snìžné,16.12168467,49.64702596
59204,Fryšava pod Žákovou horou,16.03370028,49.63344420
59211,Velká Losenice,15.83584214,49.59138031
59212,Nížkov,15.83082791,49.52693790
59213,Bohdalov,15.87211213,49.47862659
59214,Nové Veselí,15.89570469,49.49740714
59231,Nové Mìsto na Moravì,16.07952147,49.56846298
59232,Jámy,15.99853906,49.53350761
59233,Radešínská Svratka,16.07281583,49.51165414
59241,Daleèín,16.24799696,49.59118040
59242,Jimramov,16.20846965,49.63038540
59244,Vìcov,16.16842957,49.61935861
59245,Lísek u Bystøice n.Pern.,16.18468537,49.57810283
59251,Dolní Rožínka,16.20606201,49.47909654
59252,Rožná nad Pernštejnem,16.23254244,49.48374574
59253,Strážek,16.18393391,49.42553541
59254,Moravec,16.14645420,49.44274757
59255,Bobrová,16.10719254,49.47802607
59256,Zvole nad Pernštejnem,16.17299660,49.49703597
59257,Rozsochy,16.19437924,49.52842499
59261,Doubravník,16.32339683,49.41153297
59262,Nedvìdice,16.32821086,49.45971106
59263,Štìpánov nad Svratkou,16.34430314,49.50545882
59264,Prosetín u Bystøice n.P.,16.39781036,49.52176074
59265,Roveèné,16.32726636,49.58818491
59266,Vír,16.32144335,49.55881279
59301,Bystøice nad Pernštejnem,16.26527530,49.53361389
59401,Velké Meziøíèí,16.01410370,49.34960082
59441,Uhøínov,15.93093649,49.34832360
59442,Mìøín,15.88879841,49.39827826
59444,Radostín nad Oslavou,15.94835928,49.44924582
59445,Ostrov nad Oslavou,15.98696201,49.48725403
59451,Køižanov,16.16348619,49.38491493
59452,Oøechov u Vel.Meziøíèí,16.13334023,49.35150540
59453,Osová Bítýška,16.19894695,49.33419249
59454,Køoví,16.25803823,49.30951235
59455,Dolní Louèky,16.31900585,49.35733328
59456,Žïárec,16.26847909,49.38196968
59457,Vidonín,16.22164414,49.37839508
59458,Heømanov u Velké Bíteše,16.17945626,49.38161962
59461,Bory,16.01614212,49.42777171
59501,Velká Bíteš,16.20938646,49.28103155
60200,Brno 2,16.60444313,49.19821479
60300,Brno 3,16.57336576,49.18951943
61200,Brno 12,16.59843625,49.22998399
61300,Brno 13,16.62084284,49.21278253
61400,Brno 14,16.64776480,49.22682734
61500,Brno 15,16.64195237,49.20139941
61600,Brno 16,16.57526266,49.21466710
61700,Brno 17,16.62554385,49.17374934
61800,Brno 18,16.64519044,49.17833433
61900,Brno 19,16.61236725,49.15433654
62000,Brno 20,16.67159736,49.14947374
62100,Brno 21,16.58739138,49.26114701
62300,Brno 23,16.54211450,49.19298477
62400,Brno 24,16.54839181,49.23308212
62500,Brno 25,16.57013097,49.16657313
62700,Brno 27,16.67826099,49.17781122
62800,Brno 28,16.69430221,49.20999403
63400,Brno 34,16.55597602,49.18000589
63500,Brno 35,16.48020290,49.23671274
63600,Brno 36,16.65795949,49.19263209
63700,Brno 37,16.54935618,49.20814114
63800,Brno 38,16.62516098,49.22942920
63900,Brno 39,16.59430928,49.17778773
64100,Brno 41,16.50386912,49.20567764
64200,Brno 42,16.52446477,49.18062488
64300,Brno 43,16.65517845,49.12624523
64400,Brno 44,16.62667416,49.26378775
66401,Bílovice nad Svitavou,16.68091602,49.26588231
66402,Ochoz u Brna,16.74577149,49.25835759
66403,Podolí u Brna,16.72777908,49.19066052
66404,Mokrá,16.77266909,49.24644438
66405,Tvarožná,16.76713836,49.19344169
66406,Vinièné Šumice,16.82872384,49.20294865
66407,Pozoøice,16.80419854,49.21885619
66408,Blažovice,16.78810031,49.16217872
66411,Zbýšov u Brna,16.35465673,49.15365868
66412,Oslavany,16.29871392,49.13086324
66417,Tetèice,16.42095132,49.15547754
66423,Èebín,16.48098898,49.31007592
66424,Drásov,16.47682927,49.34202392
66431,Lelekovice,16.57624642,49.29250829
66432,Vranov u Brna,16.62102991,49.30476235
66434,Kuøim,16.52375383,49.28593450
66441,Troubsko,16.46818037,49.17607083
66442,Modøice,16.61138188,49.12568722
66443,Želešice,16.56932139,49.11420599
66444,Oøechov u Brna,16.51853944,49.11049059
66446,Prštice u Brna,16.46855103,49.11902718
66447,Støelice u Brna,16.49686176,49.15004603
66448,Moravany u Brna,16.56309072,49.14380971
66449,Ostopovice,16.54504709,49.15761111
66451,Šlapanice u Brna,16.73540176,49.15733536
66452,Sokolnice,16.71375922,49.11893426
66453,Újezd u Brna,16.75423741,49.09152289
66454,Tìšany,16.77641826,49.05246551
66455,Moutnice,16.72169302,49.04897647
66456,Bluèina,16.65784283,49.05176416
66457,Mìnín,16.69168819,49.08041494
66458,Prace,16.76624426,49.13732381
66459,Telnice u Brna,16.70600820,49.10108268
66461,Rajhrad,16.62329055,49.08916994
66462,Hrušovany u Brna,16.57698276,49.03743823
66463,Žabèice,16.60266844,49.00232634
66464,Dolní Kounice,16.46249118,49.06323400
66465,Malešovice,16.49000448,49.02577126
66466,Nìmèièky u Židlochovic,16.52670756,49.03708275
66467,Syrovice,16.54464887,49.07295453
66471,Veverská Bítýška,16.39947322,49.27828352
66475,Deblín,16.33435883,49.32010680
66481,Ostrovaèice,16.41464214,49.22128687
66482,Øíèany u Brna,16.38070813,49.21607710
66483,Domašov u Brna,16.32986749,49.25427123
66484,Zastávka u Brna,16.30040543,49.20252408
66491,Ivanèice,16.37370085,49.10172452
66501,Rosice u Brna,16.39132588,49.18839393
66601,Tišnov 1,16.40191457,49.34220816
66602,Pøedklášteøí,16.39539463,49.36091367
66603,Tišnov 3,16.48079700,49.33254203
66701,Židlochovice,16.61038551,49.04727711
66902,Znojmo 2,16.02247883,48.83615912
66904,Znojmo 4,16.02984440,48.88863574
67101,Citonice,15.97588322,48.88438227
67102,Šumná,15.84393469,48.92349279
67103,Vranov nad Dyjí,15.81293792,48.89179669
67106,Šafov,15.73242967,48.89262391
67107,Uherèice u Znojma,15.63838409,48.92630292
67110,Bítov,15.72182562,48.93493493
67122,Šatov,16.02573502,48.78483575
67124,Vrbovec,16.11061260,48.79524417
67125,Hodonice,16.16157232,48.83858345
67126,Dyjákovice,16.31440574,48.76032829
67127,Hrádek u Znojma,16.27214278,48.78085069
67128,Jaroslavice,16.23045537,48.78618404
67129,Strachotice,16.16843373,48.78705689
67131,Únanov,16.06167887,48.90410228
67132,Plaveè u Znojma,16.07295621,48.92910964
67133,Mikulovice u Znojma,16.10123514,48.95960383
67134,Horní Dunajovice,16.14943153,48.93137486
67138,Višòové u Znojma,16.14779462,48.98139403
67139,Bìhaøovice,16.07305193,49.00653243
67140,Tavíkovice,16.10065047,49.01151108
67142,Vémyslice,16.24084009,49.01579228
67151,Kravsko,15.96687328,48.92238547
67152,Hluboké Mašùvky,16.02311167,48.93714887
67153,Jevišovice,16.00431721,48.98769454
67154,Hostim,15.90076964,48.99423559
67155,Blížkovice,15.82718050,48.98962019
67156,Grešlové Mýto,15.91283033,48.96669497
67161,Prosimìøice,16.18441025,48.89418146
67162,Oleksovice,16.25550394,48.90713333
67163,Lechovice,16.21798100,48.86689502
67164,Božice,16.28411116,48.84139327
67165,Bøežany u Znojma,16.31090889,48.87033832
67167,Hrušovany nad Jevišovkou,16.40331951,48.82838934
67168,Hrabìtice,16.38275072,48.79758699
67169,Hevlín,16.37513275,48.75824027
67171,Hostìradice,16.23086611,48.96801785
67172,Miroslav,16.33248309,48.94817241
67173,Tulešice,16.19557904,49.05066831
67175,Lodìnice u Mor.Krumlova,16.41692159,49.01698079
67176,Olbramovice u M.Krumlova,16.38222123,48.98586193
67177,Branišovice,16.43406289,48.96259975
67178,Jiøice u Miroslavi,16.40779803,48.90594401
67181,Znojmo 5,16.07110373,48.82752961
67182,Dobšice,16.09420776,48.85397323
67201,Moravský Krumlov,16.29884132,49.03917178
67401,Tøebíè 1,15.88679661,49.21846697
67501,Vladislav,15.97874661,49.20909270
67502,Konìšín,16.05846713,49.19997698
67503,Budišov u Tøebíèe,16.01475542,49.26292975
67504,Hodov,15.98357549,49.29453083
67505,Rudíkov,15.93754449,49.30796018
67506,Benetice,15.86647390,49.30146975
67507,Èechtín,15.82143095,49.30681773
67508,Kouty u Tøebíèe,15.79610273,49.31043891
67521,Okøíšky,15.75731046,49.25281950
67522,Staøeè,15.80013924,49.17803933
67523,Kojetice na Moravì,15.81882543,49.15259362
67524,Èáslavice,15.75781116,49.15452776
67525,Rokytnice nad Rokytnou,15.77237122,49.18153139
67526,Želetava,15.67440585,49.12893470
67527,Pøedín,15.68655085,49.20553594
67528,Opatov na Moravì,15.65586084,49.22554094
67529,Knìžice u Tøebíèe,15.68148952,49.26388666
67531,Jemnice,15.57156962,49.02581407
67532,Tøebelovice,15.65014939,49.00205669
67533,Dešov,15.71376366,48.97746771
67534,Police u Jemnice,15.62324369,48.96423787
67541,Nové Syrovice,15.76231803,49.01379447
67542,Budkov,15.66190283,49.05571453
67543,Domamil,15.68852412,49.08502582
67544,Lesonice,15.74240602,49.10438921
67545,Šebkovice,15.81023988,49.12300137
67551,Jaromìøice nad Rokytnou,15.89157556,49.08960680
67552,Lipník u Hrotovic,15.97091982,49.15639790
67553,Valeè u Hrotovic,16.03023277,49.14657151
67554,Dalešice,16.08681545,49.12948174
67555,Hrotovice,16.05297322,49.10926518
67556,Dukovany,16.16997669,49.08901816
67557,Rouchovany,16.08395736,49.06073120
67558,Biskupice u Hrotovic,16.01065479,49.04380962
67559,Radkovice u Hrotovic,15.97969313,49.07127999
67560,Mysliboøice,15.97097284,49.10932244
67571,Námìš nad Oslavou,16.14417935,49.22581832
67573,Rapotice,16.22321725,49.19567837
67574,Bøezník,16.19010743,49.17153237
67575,Mohelno,16.19198734,49.13072284
67576,Hartvíkovice,16.09748567,49.17659749
67577,Kramolín-vodní dílo,16.12421878,49.13745364
67578,Èikov,16.13098171,49.26465497
67579,Tasov,16.10172139,49.28744005
67602,Moravské Budìjovice 2,15.81965869,49.04867703
67801,Blansko 1,16.65527855,49.36173368
67901,Skalice nad Svitavou,16.60532730,49.47037840
67902,Rájec-Jestøebí,16.66379820,49.41379937
67903,Olomuèany,16.66947257,49.32643580
67904,Adamov 1,16.66696130,49.29998296
67905,Køtiny,16.75506965,49.30234734
67906,Jedovnice,16.78033445,49.35580778
67907,Kotvrdovice,16.78711260,49.36197165
67911,Doubravice nad Svitavou,16.63916004,49.44053308
67913,Sloup v Moravském Krasu,16.75100563,49.41781784
67914,Ostrov u Macochy,16.75028630,49.38750960
67915,Lipovec u Blanska,16.80264960,49.38974506
67921,Èerná Hora,16.56167229,49.40861776
67922,Lipùvka,16.57045284,49.34608554
67923,Lomnice u Tišnova,16.43136486,49.42175010
67924,Unín u Tišnova,16.49713542,49.38348314
67931,Sebranice u Boskovic,16.57432514,49.49644548
67932,Svitávka,16.60654116,49.50921153
67933,Vísky u Letovic,16.62408666,49.53811109
67934,Knínice u Boskovic,16.69436295,49.53681444
67935,Šebetov,16.72350763,49.55307512
67936,Vanovice,16.67110885,49.56924914
67937,Borotín u Boskovic,16.67924340,49.58516903
67938,Cetkovice,16.72206672,49.58236698
67939,Úsobrno,16.77496113,49.58882075
67951,Nìmèice u Boskovic,16.70420590,49.44682080
67952,Žïárná,16.77402295,49.46433781
67953,Benešov u Boskovic,16.78094100,49.51743848
67961,Letovice,16.58577052,49.57039432
67962,Køetín,16.49705023,49.56377247
67963,Velké Opatovice,16.67503172,49.60429582
67971,Lysice,16.49662842,49.45670006
67972,Kunštát na Moravì,16.51787626,49.50727271
67973,Rozseè nad Kunštátem,16.46019887,49.51986017
67974,Olešnice na Moravì,16.42992363,49.55227490
67975,Èernovice u Boskovic,16.40742642,49.48494560
67976,Drnovice u Lysic,16.53743410,49.47103894
68001,Boskovice,16.70145314,49.49501805
68201,Vyškov 1,17.00198012,49.27386069
68301,Rousínov u Vyškova,16.88303016,49.21613141
68303,Luleè,16.92301889,49.25455649
68304,Drnovice,16.87808358,49.31593787
68305,Raèice-Pístovice,16.87566106,49.28053950
68321,Pustimìø,17.03734462,49.32811194
68323,Ivanovice na Hané,17.11772916,49.28575294
68333,Nesovice,17.11752190,49.14749876
68335,Letonice u Vyškova,16.96760029,49.18011798
68341,Bohdalice,17.06791778,49.20297145
68351,Holubice,16.81959392,49.17159450
68352,Køenovice u Slavkova,16.81330432,49.12661056
68354,Otnice,16.83547453,49.07308627
68401,Slavkov u Brna,16.90322005,49.12065101
68501,Buèovice,17.00214958,49.14050003
68601,Uherské Hradištì 1,17.37754777,49.09170010
68603,Staré Mìsto u Uher.Hrad.3,17.43710659,49.08155822
68604,Kunovice,17.49143487,49.03546988
68605,Uherské Hradištì 5,17.49188805,49.06443029
68606,Uherské Hradištì 6,17.45118397,49.06469804
68703,Babice u Uher.Hradištì,17.46317721,49.12601535
68704,Traplice,17.40478853,49.15679200
68705,Jalubí,17.42116804,49.11556414
68706,Velehrad,17.35359088,49.13903842
68707,Tupesy,17.37386362,49.09093108
68708,Buchlovice,17.31139538,49.09822921
68709,Boršice u Buchlovic,17.33219563,49.05819295
68710,Zlechov,17.38692387,49.07331099
68711,Topolná,17.53889991,49.12662491
68712,Bílovice u Uher.Hradištì,17.57675550,49.10021694
68713,Bøezolupy,17.58903145,49.12866924
68722,Ostrožská Nová Ves,17.43673935,49.00912307
68723,Ostrožská Lhota,17.48006761,48.97087095
68724,Uherský Ostroh,17.40801134,48.98299953
68725,Hluk,17.52774193,48.98301856
68731,Šumice,17.72246471,49.02628029
68732,Nezdenice,17.74766174,49.03063736
68733,Hradèovice,17.58288848,49.04781291
68734,Uherský Brod 3,17.68713135,49.04182033
68737,Polešovice,17.32678747,49.02766434
68738,Nedakonice,17.37893018,49.03308477
68741,Medlovice,17.27347036,49.04425806
68742,Osvìtimany,17.24351643,49.06982431
68751,Nivnice,17.65020043,48.97320780
68752,Korytná,17.67860917,48.93160031
68753,Suchá Loz,17.70782445,48.95402849
68754,Bánov u Uherského Brodu,17.72628262,48.97986789
68755,Bystøice pod Lopeníkem,17.76997545,48.96850176
68756,Prakšice,17.64438523,49.06990655
68761,Vlènov,17.57996919,48.99756044
68762,Dolní Nìmèí,17.58084961,48.96716301
68763,Boršice u Blatnice,17.57079485,48.93036996
68764,Horní Nìmèí,17.62447004,48.92477802
68765,Strání,17.69370595,48.90390104
68766,Kvìtná,17.68115101,48.87648489
68767,Bøezová u Uherského Brodu,17.76425161,48.92692786
68771,Bojkovice,17.82516565,49.02157743
68774,Starý Hrozenkov,17.85793120,48.95584483
68801,Uherský Brod 1,17.64501416,49.02209798
69002,Bøeclav 2,16.90461333,48.73337961
69003,Bøeclav 3,16.89437433,48.78081364
69006,Bøeclav 6,16.83416882,48.77319171
69101,Moravský Žižkov,16.92990877,48.82299476
69102,Velké Bílovice,16.89331745,48.85556189
69103,Rakvice,16.81715052,48.85958552
69104,Pøítluky,16.77216386,48.84736954
69105,Zajeèí,16.76295504,48.87615274
69106,Velké Pavlovice,16.82794322,48.89797230
69107,Nìmèièky u Bøeclavi,16.83110314,48.93266518
69108,Boøetice u Hustopeèí,16.85955468,48.91267833
69109,Vrbice u Bøeclavì,16.89817566,48.89881972
69110,Kobylí na Moravì,16.89852787,48.93818504
69111,Brumovice na Moravì,16.89166739,48.96364761
69112,Boleradice,16.81361577,48.96566680
69121,Sedlec u Mikulova,16.70908106,48.78565757
69122,Pasohlávky,16.56254289,48.90311184
69123,Pohoøelice,16.53629470,48.96457167
69124,Pøibice,16.57165386,48.97153212
69125,Vranovice,16.60515229,48.97052760
69126,Pouzdøany,16.62644589,48.93226386
69127,Popice,16.67489990,48.92890458
69129,Dolní Vìstonice,16.64015318,48.89204697
69130,Vlasatice,16.48545079,48.93383336
69141,Bøeclav 4,16.85249466,48.73405697
69142,Valtice,16.76130312,48.74325311
69143,Hlohovec u Bøeclavì,16.76235547,48.77188863
69144,Lednice na Moravì,16.79871428,48.80258519
69145,Podivín,16.85299599,48.82694168
69146,Bøeclav 5,16.89422450,48.79963879
69151,Lanžhot,16.95560880,48.68912759
69152,Kostice u Bøeclavì,16.94738653,48.75104179
69153,Tvrdonice,16.99085721,48.75653919
69154,Týnec u Bøeclavì,17.01998213,48.77493667
69155,Moravská Nová Ves,17.03118455,48.79938281
69156,Hrušky,16.95997818,48.79881607
69162,Uherèice u Hustopeèí,16.65754327,48.95946136
69163,Velké Nìmèice,16.68858356,48.98936876
69164,Nosislav,16.65312466,49.01574052
69165,Køepice u Hustopeèí,16.72131895,49.01344861
69167,Šakvice,16.72394488,48.89236211
69171,Diváky,16.78400097,48.98738372
69172,Klobouky u Brna,16.85721802,48.99466302
69173,Krumvíø,16.91689931,48.98506291
69174,Velké Hostìrádky,16.87595127,49.04146069
69175,Borkovany,16.82399067,49.03016771
69176,Šitboøice,16.77522525,49.01467956
69181,Bøezí u Mikulova,16.56130545,48.82066236
69182,Novosedly na Moravì,16.50453699,48.82571815
69183,Drnholec,16.47094108,48.86341214
69185,Dolní Dunajovice,16.57477745,48.85791684
69186,Perná,16.61737527,48.85307236
69188,Milovice u Mikulova,16.70307985,48.85402318
69189,Bulhary,16.74018721,48.82103935
69201,Mikulov na Moravì,16.64703757,48.84658528
69301,Hustopeèe u Brna,16.74936017,48.94564782
69501,Hodonín 1,17.11426062,48.87145958
69601,Rohatec,17.19778210,48.88733561
69602,Ratíškovice,17.16268721,48.91973557
69603,Dubòany,17.09097131,48.92706992
69604,Svatoboøice,17.08861398,48.97689279
69605,Milotice u Kyjova,17.13107096,48.95518657
69606,Vacenovice,17.18015497,48.94127377
69611,Mutìnice,17.01119167,48.90615705
69612,Hovorany,17.01166219,48.94746838
69613,Šardice,17.02599502,48.96848202
69614,Èejè,16.95806793,48.94845017
69615,Èejkovice,16.93600108,48.89451844
69616,Starý Poddvorov,16.97804531,48.86896893
69617,Dolní Bojanovice,17.02994274,48.86695505
69618,Lužice u Hodonína,17.06766037,48.83981172
69619,Mikulèice,17.05963881,48.81609969
69621,Prušánky,16.98399667,48.83947633
69631,Bukovany u Hodonína,17.08498460,49.04407460
69632,Ždánice,17.02851294,49.08384296
69633,Archlebov,17.00189064,49.04725280
69634,Žarošice,16.96192687,49.05146629
69635,Damboøice,16.92223811,49.03781082
69636,Násedlovice,16.95850707,48.99960814
69637,Želetice u Kyjova,16.99743913,49.00095903
69638,Strážovice,17.04395183,48.99974776
69639,Lovèice u Kyjova,17.06059958,49.07197002
69641,Vlkoš u Kyjova,17.15769554,48.98917045
69642,Vracov,17.22103694,48.95204742
69647,Žeravice,17.24038314,49.02148764
69648,Ježov,17.21070422,49.02532794
69649,Žádovice,17.19565621,49.00583223
69650,Moravany u Kyjova,17.18302724,49.05491816
69651,Kostelec u Kyjova,17.15402047,49.04710268
69655,Kyjov 3,17.11892994,49.05793953
69661,Vnorovy,17.34453603,48.92162577
69662,Strážnice,17.33367997,48.88249912
69663,Hroznová Lhota,17.41825618,48.89988277
69664,Knìždub,17.39840226,48.87728479
69665,Petrov u Hodonína,17.27415929,48.88008671
69666,Sudomìøice nad Moravou,17.25054882,48.87178323
69667,Radìjov u Hodonína,17.36304717,48.83956266
69671,Blatnice p.Sv.Antonínkem,17.52018558,48.93017768
69672,Lipov,17.46221233,48.91128997
69673,Hrubá Vrbka,17.47153332,48.85691205
69674,Velká nad Velièkou,17.55671923,48.86687166
69676,Louka nad Velièkou,17.49116910,48.91984002
69681,Bzenec,17.27398123,48.95659245
69683,Domanín,17.29300095,49.00436032
69684,Tìmice u Hodonína,17.26342284,49.01100858
69685,Moravský Písek,17.32480460,48.98150804
69701,Kyjov 1,17.12163472,49.02781836
69801,Veselí nad Moravou,17.38442272,48.94975833
70030,Ostrava 30,18.24055343,49.79067010
70200,Ostrava 2,18.27039527,49.84465570
70300,Ostrava 3,18.26810299,49.81073373
70800,Ostrava 8,18.16374962,49.82915775
70900,Ostrava 9,18.23931455,49.83032102
71000,Ostrava 10,18.31475507,49.83277714
71100,Ostrava 11,18.29988384,49.87953949
71200,Ostrava 12,18.30037327,49.85384818
71300,Ostrava 13,18.33142812,49.86352345
71500,Ostrava 15,18.35013526,49.83813083
71600,Ostrava 16,18.34445967,49.81623420
71700,Ostrava 17,18.34156304,49.79083731
71800,Ostrava 18,18.30376180,49.80997099
71900,Ostrava 19,18.30310875,49.79366382
72000,Ostrava 20,18.28265534,49.76651627
72100,Ostrava 21,18.19804306,49.80571502
72200,Ostrava 22,18.20225170,49.83292011
72300,Ostrava 23,18.18640123,49.85411822
72400,Ostrava 24,18.22573553,49.75807611
72525,Ostrava 25,18.16907928,49.78062929
72526,Ostrava 26,18.12761496,49.84596660
72527,Ostrava 27,18.14918747,49.85850307
72528,Ostrava 28,18.21701570,49.85098043
72529,Ostrava 29,18.25845160,49.87061642
73301,Karviná 1,18.54535210,49.84159037
73401,Karviná 4,18.57400819,49.85200838
73503,Karviná 3,18.54088405,49.83738888
73506,Karviná 6,18.49189079,49.83747358
73511,Orlová 1,18.43665115,49.83545522
73514,Orlová 4,18.42295237,49.86646451
73531,Bohumín 3,18.38044941,49.91132529
73532,Rychvald,18.37571351,49.86277722
73533,Doubrava,18.47395032,49.86003057
73534,Stonava,18.52973846,49.81225600
73535,Horní Suchá,18.48300844,49.79853460
73541,Petøvald u Karviné,18.38959803,49.82726576
73542,Tìrlicko,18.50809011,49.74812646
73543,Albrechtice u Èes.Tìšína,18.53052456,49.78432367
73551,Bohumín 5,18.32582289,49.88920189
73552,Bohumín 4,18.37345729,49.88841751
73553,Dolní Lutynì,18.41898300,49.91283485
73561,Chotìbuz,18.58167003,49.77108322
73562,Èeský Tìšín 6,18.56737583,49.74769834
73564,Havíøov 4,18.44548983,49.80233500
73571,Dìtmarovice,18.46735535,49.88929474
73572,Petrovice u Karviné,18.54012962,49.89706137
73581,Bohumín 1,18.34994540,49.91611214
73601,Havíøov 1,18.43611332,49.77773050
73701,Èeský Tìšín 1,18.59318544,49.72783192
73801,Frýdek-Místek 1,18.34439265,49.68488769
73901,Baška,18.36306999,49.63827102
73904,Pražmo,18.52489162,49.56796488
73905,Morávka,18.51606873,49.60037087
73908,Frýdek-Místek 10,18.40904044,49.64810899
73911,Frýdlant nad Ostravicí,18.38400906,49.58799497
73912,Èeladná,18.32267088,49.50992280
73914,Ostravice,18.39706321,49.53571443
73915,Staré Hamry,18.44801475,49.46563833
73921,Paskov,18.28324031,49.72799224
73923,Stará Ves nad Ondøejnicí,18.18732385,49.72466009
73924,Krmelín,18.24317385,49.73237641
73932,Vratimov 1,18.32787614,49.75414448
73934,Šenov u Ostravy,18.38069443,49.77840233
73936,Sedlištì,18.38839372,49.72253536
73937,Horní Bludovice,18.43575501,49.74513819
73938,Dolní Domaslavice,18.48288516,49.71769711
73941,Palkovice,18.29169225,49.62933614
73942,Frýdek-Místek 8,18.27858092,49.65635200
73943,Staøíè,18.27619960,49.68851405
73944,Brušperk,18.22848672,49.70307013
73945,Fryèovice,18.22431053,49.66886470
73946,Hukvaldy,18.22289989,49.63081592
73947,Kozlovice,18.27346289,49.58955294
73949,Metylovice,18.32934889,49.60755738
73951,Dobrá,18.45458963,49.67199216
73953,Hnojník,18.52625518,49.67027423
73955,Smilovice u Tøince,18.58351327,49.63899855
73959,Støítež u Èeského Tìšína,18.57144829,49.69265995
73961,Tøinec 1,18.64293982,49.66048938
73981,Milíkov u Jablunkova,18.67759149,49.58447112
73982,Dolní Lomná,18.70211861,49.54448429
73984,Písek u Jablunkova,18.81040712,49.55068897
73991,Jablunkov,18.68508671,49.54135610
73992,Návsí,18.75794992,49.59169689
73994,Vendrynì,18.70302874,49.64658806
73995,Bystøice nad Olší,18.76544663,49.63871359
73998,Mosty u Jablunkova,18.75644010,49.52352042
74101,Nový Jièín 1,17.96562722,49.57727775
74201,Suchdol nad Odrou,17.92483935,49.65669725
74213,Studénka 3,18.05881215,49.70587948
74221,Kopøivnice 1,18.15421780,49.60501005
74231,Starý Jièín 1,17.95507579,49.57861416
74233,Jeseník nad Odrou,17.90513544,49.61152784
74235,Odry,17.81554340,49.67443786
74236,Jakubèovice nad Odrou,17.79451529,49.68373218
74237,Spálov,17.72240842,49.70496466
74242,Šenov u Nového Jièína,17.98908610,49.61274655
74243,Pustìjov,18.01390870,49.69377572
74245,Fulnek 1,17.90225307,49.72690834
74247,Hladké Životice,17.97092808,49.67735742
74251,Mošnov,18.12404342,49.68653175
74253,Kunín,17.99096167,49.64069616
74254,Bartošovice na Moravì,18.04877927,49.66708073
74255,Albrechtièky,18.10436049,49.70286657
74256,Sedlnice,18.09123077,49.65643182
74257,Nový Jièín 6,18.07059548,49.62786436
74258,Pøíbor,18.15506444,49.65387570
74260,Petøvald u Nového Jièína,18.14945298,49.70969540
74265,Rybí,18.07212741,49.59480592
74266,Štramberk,18.11070627,49.58686030
74267,Ženklava,18.10965684,49.56330112
74271,Hodslavice,18.02940374,49.53438830
74272,Moøkov,18.06646169,49.54268628
74273,Veøovice,18.12438854,49.53210249
74274,Tichá,18.21642988,49.57420979
74275,Lichnov u Nového Jièína,18.16562849,49.56536646
74281,Bravantice,18.08495431,49.76011424
74282,Jistebník,18.13622269,49.74849501
74283,Klimkovice,18.10313210,49.79430937
74285,Vøesina u Bílovce,18.11796721,49.81860090
74291,Velké Albrechtice,18.05023794,49.74567794
74292,Bílovec 5,18.04927988,49.77789693
74293,Slatina u Bílovce,17.97705927,49.79403027
74294,Tísek,18.02617341,49.79066288
74301,Bílovec 1,17.99388757,49.76619038
74401,Frenštát pod Radhoštìm,18.21746216,49.52283455
74601,Opava 1,17.83921863,49.94818836
74705,Opava 5,17.92298999,49.95519301
74706,Opava 6,17.93664571,49.89472446
74707,Opava 7,17.87547470,49.96039465
74711,Kozmice u Hluèína,18.15794013,49.91410860
74714,Ludgeøovice,18.23691632,49.89421715
74715,Šilheøovice,18.27665570,49.91261833
74716,Ha u Hluèína,18.24857201,49.95216575
74717,Darkovice,18.21555011,49.93632068
74718,Píš,18.18833693,49.97827296
74719,Bohuslavice u Hluèína,18.13134299,49.94494861
74720,Vøesina u Hluèína,18.19052093,49.94796192
74721,Kravaøe u Hluèína,18.02425512,49.93456621
74722,Dolní Benešov,18.10172685,49.91868441
74723,Bolatice,18.10940694,49.95714736
74724,Chuchelná,18.10807176,49.99124700
74725,Sudice,18.05366102,50.03395774
74727,Kobeøice,18.05390489,49.98477665
74728,Štìpánkovice,18.02432019,49.96641495
74731,Velké Hoštice,17.97402865,49.94481629
74733,Oldøišov,17.96012244,49.98502959
74735,Hnìvošice,18.00488158,50.00414912
74741,Hradec nad Moravicí,17.87503833,49.85510366
74743,Vìtøkovice u Vítkova,17.82022222,49.78449743
74744,Bøezová u Vítkova,17.86611917,49.79452852
74745,Skøipov u Opavy,17.92592942,49.80519878
74747,Vítkov 3,17.72861924,49.74236137
74751,Stìboøice,17.79919672,49.93297821
74752,Hlavnice,17.71992441,49.92628487
74753,Jakartovice,17.67070930,49.91351953
74754,Mladecko,17.71259079,49.90534247
74755,Litultovice,17.67994498,49.88561562
74756,Dolní Životice,17.77583647,49.89510586
74757,Slavkov u Opavy,17.83398238,49.91591332
74761,Raduò,17.93899583,49.87829092
74762,Mokré Lazce,18.01810287,49.89436244
74763,Hrabynì 1,18.05640183,49.88435444
74764,Velká Polom,18.06038719,49.84836417
74766,Dolní Lhota,18.09401848,49.84311587
74767,Hrabynì 3,18.05167587,49.87186643
74768,Kyjovice,18.04472473,49.83493192
74769,Pustá Polom,17.98818041,49.84564487
74770,Opava 9,17.96440479,49.91020807
74771,Brumovice u Opavy,17.74023693,50.01604312
74773,Vávrovice,17.84759934,49.97381228
74774,Neplachovice,17.77297203,49.99999660
74775,Velké Heraltice,17.72085517,49.97108736
74781,Otice,17.86772748,49.90757861
74782,Štáblovice,17.81985775,49.88096005
74784,Melè,17.76771808,49.84837353
74786,Kružberk,17.66953665,49.84174960
74787,Budišov nad Budišovkou,17.61453936,49.78964317
74791,Štítina,18.00905947,49.91588815
74792,Háj ve Slezsku,18.10980828,49.89233613
74794,Dìhylov,18.17321166,49.86970649
74795,Suché Lazce,17.98400237,49.89911931
74801,Hluèín,18.19587285,49.89810389
74901,Vítkov 1,17.77958425,49.79791649
75002,Pøerov 2,17.44844252,49.42813768
75101,Tovaèov,17.29209936,49.41861155
75102,Troubky nad Beèvou,17.34920744,49.42113431
75103,Brodek u Pøerova,17.34504288,49.48915163
75104,Rokytnice u Pøerova,17.38443928,49.46531596
75105,Kokory,17.37550644,49.49373526
75111,Radslavice,17.54803238,49.47112873
75114,Døevohostice,17.60383216,49.42620834
75115,Domaželice u Pøerova,17.53985339,49.42095626
75116,Želatovice,17.51337201,49.44941385
75117,Horní Moštìnice,17.46160912,49.41173325
75118,Øíkovice,17.44893863,49.38455532
75119,Vlkoš u Pøerova,17.40999119,49.39467450
75121,Prosenice,17.47494031,49.50047507
75122,Osek nad Beèvou,17.52968787,49.50976538
75123,Dolní Újezd u Lipníka n.B,17.54225748,49.54229465
75124,Pøerov 4,17.43398330,49.48641718
75125,Veselíèko u Lipníka n.B.,17.49382342,49.54446227
75127,Penèice,17.42235745,49.51718671
75131,Lipník nad Beèvou,17.59665660,49.54278305
75144,Polkovice,17.24759086,49.39158229
75201,Kojetín,17.28653698,49.34707308
75301,Hranice 1,17.73382679,49.58952198
75351,Teplice nad Beèvou,17.73283724,49.52705607
75352,Skalièka u Hranic,17.79527815,49.51831121
75353,Všechovice,17.75593998,49.47178288
75354,Sobìchleby,17.66209841,49.47722751
75355,Paršovice,17.68635499,49.50941462
75356,Opatovice u Hranic,17.73772747,49.50344589
75361,Hranice 4,17.66418838,49.56468509
75362,Potštát,17.65414205,49.65111647
75363,Støítež nad Ludinou,17.74105649,49.60855285
75364,Bìlotín,17.80477877,49.59020276
75366,Hustopeèe nad Beèvou,17.86136848,49.54075011
75367,Milotice nad Beèvou,17.83812528,49.53670188
75368,Èernotín,17.77262883,49.53707875
75501,Vsetín 1,17.98653429,49.32906867
75601,Hovìzí,18.06154311,49.30343017
75602,Huslenky,18.12233468,49.28758593
75603,Halenkov,18.13742811,49.33374376
75604,Nový Hrozenkov,18.19739166,49.33658864
75605,Karolinka,18.25433049,49.34386845
75606,Velké Karlovice,18.33578032,49.36567264
75607,Zdìchov,18.09172111,49.25950328
75611,Valašská Polanka,17.99342736,49.25346436
75612,Horní Lideè,18.06117111,49.19121754
75614,Francova Lhota,18.11915648,49.22014276
75621,Ratiboø u Vsetína,17.90195748,49.36774032
75622,Hošálková u Vsetína,17.85655278,49.35005917
75623,Jablùnka nad Beèvou,17.94535782,49.38832102
75624,Bystøièka,17.93963664,49.41821855
75625,Rùžïka,18.00543685,49.39315991
75627,Valašská Bystøice,18.10652336,49.40108835
75641,Lešná,17.92540080,49.52358108
75642,Chorynì,17.90556062,49.49762549
75643,Kelè,17.83679099,49.48261552
75644,Louèka u Valaš.Meziøíèí,17.84802347,49.43938934
75645,Branky na Moravì,17.90168293,49.45897212
75651,Zašová,18.04277907,49.48209309
75652,Støítež nad Beèvou,18.05846661,49.45002773
75654,Zubøí,18.09925173,49.48893854
75655,Dolní Beèva,18.21906908,49.46865824
75656,Prostøední Beèva,18.26596906,49.46064206
75657,Horní Beèva,18.31359637,49.42700276
75661,Rožnov pod Radhoštìm 1,18.14857515,49.45937151
75662,Hutisko-Solanec,18.22070833,49.41086366
75701,Valašské Meziøíèí 1,17.97491692,49.47478962
76001,Zlín 1,17.66277680,49.22718288
76005,Zlín 5,17.66694705,49.23764054
76301,Mysloèovice,17.56628346,49.24958928
76302,Zlín 4,17.60266653,49.20315028
76307,Velký Oøechov,17.67116789,49.11337890
76311,Zlín 11,17.75228082,49.21709246
76312,Vizovice,17.86115859,49.21731336
76313,Jasenná u Vizovic,17.90827656,49.25956484
76314,Zlín 12,17.72031911,49.26513251
76315,Slušovice,17.82747559,49.26539000
76316,Fryšták,17.67356980,49.30277076
76317,Lukov u Zlína,17.73432450,49.29820691
76318,Trnava u Zlína,17.84024636,49.30075767
76319,Kašava,17.77732355,49.32356464
76321,Slavièín,17.87974875,49.08296653
76323,Dolní Lhota u Luhaèovic,17.82493182,49.15451248
76324,Vlachovice,17.92957216,49.12630314
76325,Újezd u Valaš.Klobouk,17.91928175,49.17660808
76326,Luhaèovice,17.76740208,49.11101223
76331,Brumov-Bylnice 1,18.02816155,49.08367599
76332,Nedašov,18.07927858,49.11218422
76333,Štítná nad Vláøí,17.97168310,49.05803248
76334,Brumov-Bylnice 3,18.04614824,49.04452053
76341,Biskupice u Luhaèovic,17.71273836,49.10004728
76345,Bøezùvky,17.71109828,49.15810962
76351,Bohuslavice u Zlína,17.63290903,49.16241521
76361,Napajedla,17.52778513,49.17247651
76362,Tlumaèov,17.51121224,49.24959696
76363,Halenkovice,17.45151225,49.17860768
76364,Spytihnìv,17.49354500,49.14382967
76502,Otrokovice 2,17.53672471,49.21040619
76601,Valašské Klobouky,18.00270662,49.15110982
76701,Kromìøíž 1,17.38802668,49.27408481
76801,Jarohnìvice,17.36382550,49.26621932
76802,Zdounky,17.30153808,49.21977154
76803,Roštín,17.29959020,49.18654594
76804,Støílky,17.21081293,49.14329673
76805,Koryèany,17.19566293,49.12048210
76811,Chropynì,17.37549082,49.36746836
76812,Rataje u Kromìøíže,17.33108089,49.27412801
76813,Litenèice,17.20291677,49.20051308
76821,Kvasice,17.45162080,49.22944382
76823,Bøest,17.43937113,49.35723885
76824,Hulín,17.47675834,49.30920326
76831,Zlobice,17.30894513,49.29889416
76832,Zborovice,17.28083922,49.25306469
76833,Morkovice-Slížany,17.22186493,49.26035428
76834,Paèlavice,17.15698166,49.25190928
76841,Bystøice pod Hostýnem 7,17.69313660,49.35551602
76842,Prusinovice,17.59239005,49.38435778
76843,Kostelec u Holešova,17.53512340,49.37682232
76852,Míškovice u Holešova,17.54530844,49.28282700
76861,Bystøice pod Hostýnem 1,17.67726371,49.40444087
76871,Rajnochovice,17.80274870,49.39214403
76872,Chvalèov,17.72925121,49.38122342
76875,Loukov u Kromìøíže,17.72757242,49.41195447
76901,Holešov,17.57903851,49.32811081
77900,Olomouc 9,17.29847493,49.59118138
78301,Olomouc 18,17.23672755,49.56014171
78305,Horní Lodìnice,17.37699720,49.77281516
78306,Domašov nad Bystøicí,17.52955956,49.69221849
78313,Štìpánov u Olomouce,17.21401527,49.68407787
78314,Bohuòovice,17.27382205,49.66423855
78316,Dolany u Olomouce,17.35511017,49.68018498
78321,Chudobín,17.01399498,49.70438678
78322,Cholina,17.02392676,49.64429760
78324,Slavìtín u Litovle,16.95786029,49.67030298
78325,Bouzov,16.89661243,49.69480086
78332,Náklo,17.13731399,49.66709669
78333,Pøíkazy,17.15347010,49.64630543
78335,Horka nad Moravou,17.19979257,49.64061014
78336,Køelov-Bøuchotín,17.19138923,49.61575109
78342,Slatinice,17.09594744,49.55141327
78344,Námìš na Hané,17.05850941,49.59367988
78345,Senice na Hané,17.08483721,49.62535007
78346,Tìšetice,17.13498816,49.59143624
78347,Hnìvotín,17.17354478,49.56881744
78349,Lutín,17.13626707,49.55787471
78353,Velká Bystøice,17.35608300,49.58746966
78354,Pøáslavice,17.39586637,49.58490564
78355,Velký Újezd,17.51134761,49.59216723
78356,Doloplazy,17.41184547,49.56795965
78357,Tršice,17.41280139,49.54232422
78361,Hluboèky 1,17.41755121,49.65956146
78365,Hluboèky 3,17.42215594,49.61476466
78372,Velký Týnec,17.33612060,49.55135067
78373,Grygov,17.30032622,49.52209125
78375,Dub nad Moravou,17.26446206,49.49448847
78383,Troubelice,17.07645933,49.82833318
78385,Šumvald u Unièova,17.13505380,49.84214756
78386,Dlouhá Louèka,17.18744656,49.82571554
78391,Unièov 1,17.08541414,49.76911496
78396,Újezd u Unièova,17.18403362,49.76706686
78397,Paseka u Šternberka,17.23049695,49.79697372
78401,Litovel,17.11567850,49.70826678
78501,Šternberk 1,17.29255669,49.74661910
78701,Šumperk 1,16.97041536,49.99566753
78801,Oskava,17.13948491,49.93150222
78803,Nový Malín,17.05441467,49.94331389
78804,Hrabišín,17.03118287,49.91843873
78805,Libina,17.08756812,49.88167151
78811,Louèná nad Desnou,17.13550794,50.09714347
78813,Vikýøovice,17.03262650,49.97977970
78814,Rapotín,17.01916893,50.00229037
78815,Velké Losiny,17.08913711,50.04020302
78816,Sobotín,17.10883647,49.99916053
78820,Dolní Studénky,16.98360696,49.93688356
78821,Sudkov,16.95204098,49.91242454
78823,Jindøichov u Šumperka,17.01895210,50.11515738
78825,Branná,17.02994721,50.16730152
78832,Staré Mìsto pod Snìžníkem,16.93828469,50.17913737
78833,Hanušovice,16.88512995,50.08796784
78901,Zábøeh,16.84301399,49.87192222
78961,Bludov,16.92506643,49.94469646
78962,Olšany u Šumperka,16.84808557,49.97059615
78963,Ruda nad Moravou,16.88343858,49.99187542
78964,Bohdíkov,16.89837357,50.03108941
78969,Postøelmov,16.91286733,49.90698843
78971,Leština u Zábøeha,16.93101224,49.86497893
78972,Dubicko,16.95246459,49.82369214
78973,Úsov,16.99733095,49.81006922
78974,Rohle,17.01543801,49.86832650
78975,Brníèko u Zábøeha,16.97495171,49.89012460
78982,Moravièany,16.96483222,49.75154847
78983,Loštice,16.93024934,49.73821890
78985,Mohelnice,16.87512405,49.76826715
78991,Štíty,16.78615288,49.99302045
79001,Jeseník 1,17.20203339,50.17752622
79051,Supíkovice,17.24409891,50.29712145
79052,Velké Kunìtice,17.25713694,50.31922792
79053,Stará Èervená Voda,17.19463926,50.31435538
79054,Èerná Voda,17.15292831,50.30721606
79055,Vidnava,17.18032540,50.37191234
79057,Bernartice u Javorníka,17.08202859,50.38134454
79058,Velká Kraš,17.14704252,50.35694254
79061,Lipová-láznì 1,17.14955884,50.22925036
79063,Lipová-láznì 3,17.08346195,50.21616436
79064,Vápenná,17.10961939,50.26441200
79065,Žulová,17.07348484,50.32540492
79066,Skorošice,17.04774713,50.27995869
79069,Bílá Voda u Javorníka,16.89720856,50.42551284
79070,Javorník u Jeseníku,16.97264362,50.37617989
79081,Èeská Ves,17.21223009,50.25920573
79082,Píseèná u Jeseníku,17.25529952,50.26987825
79084,Mikulovice u Jeseníku 1,17.30119067,50.28440681
79201,Bruntál 1,17.47356609,49.97778603
79302,Lomnice u Rýmaøova,17.42895001,49.88840846
79303,Dìtøichov nad Bystøicí,17.40811002,49.83437702
79305,Moravský Beroun,17.46136674,49.79618879
79312,Horní Benešov,17.62595603,49.96516304
79313,Svobodné Heømanice,17.67156962,49.94432911
79315,Lichnov u Bruntálu,17.61995215,50.01105133
79316,Zátor,17.57056961,50.04477160
79323,Karlovice,17.45921082,50.11650980
79324,Karlova Studánka,17.30707996,50.07435170
79326,Vrbno pod Pradìdem,17.33802536,50.12060574
79331,Svìtlá Hora 1,17.37284428,50.05168468
79336,Malá Morávka,17.26778143,50.04505227
79342,Janovice u Rýmaøova,17.25208527,49.95586923
79344,Horní Mìsto,17.20145386,49.89644449
79351,Bøidlièná,17.31107542,49.86780818
79356,Ryžovištì,17.36126694,49.87288858
79368,Dvorce u Bruntálu,17.54435149,49.85875615
79371,Holèovice,17.45837125,50.15645200
79374,Heømanovice,17.36491829,50.18164217
79376,Zlaté Hory v Jeseníkách,17.35025785,50.23394163
79382,Tøemešná u Krnova,17.55939605,50.20339151
79383,Jindøichov u Krnova,17.51820256,50.24614268
79384,Janov u Krnova,17.45423195,50.23620569
79391,Úvalno,17.73002389,50.04818924
79393,Brantice,17.63267087,50.06119102
79395,Mìsto Albrechtice,17.53859849,50.17135205
79397,Slezské Rudoltice,17.68994290,50.20566590
79399,Osoblaha,17.65616954,50.25412115
79401,Krnov 1,17.60995458,50.09166956
79501,Rýmaøov,17.25991812,49.96862419
79601,Prostìjov 1,17.11792599,49.45881173
79603,Prostìjov 3,17.11322915,49.48102239
79604,Prostìjov 4,17.07102843,49.46260144
79607,Prostìjov 7,17.14121491,49.49588545
79802,Mostkovice,17.04825237,49.47439665
79803,Plumlov,16.98552422,49.47315404
79804,Urèice,17.06611681,49.42619885
79805,Myslejovice,16.95487813,49.39917682
79806,Otaslavice,17.07196749,49.38425740
79807,Brodek u Prostìjova,17.09990817,49.36234750
79808,Kelèice,17.10495650,49.39997981
79809,Vøesovice,17.14477371,49.40478234
79811,Prostìjov 6,17.16228632,49.48432573
79812,Kralice na Hané,17.19817379,49.48294539
79813,Vrbátky,17.19617326,49.50474354
79814,Olšany u Prostìjova,17.15436219,49.53341955
79816,Èelechovice na Hané,17.10043757,49.52230542
79817,Smržice,17.11215671,49.50375738
79821,Bedihoš,17.19327344,49.44110525
79823,Klenovice na Hané,17.21862212,49.40767777
79824,Pivín,17.17972221,49.38832060
79825,Dobromilice,17.15134134,49.36732620
79826,Nezamyslice u Prostìjova,17.15949750,49.33464290
79827,Nìmèice nad Hanou,17.21527449,49.33731677
79828,Moøice,17.19889338,49.32342082
79829,Tištín,17.16914979,49.29621506
79830,Pavlovice u Kojetína,17.21462698,49.30341068
79841,Kostelec na Hané,17.03587711,49.52283678
79842,Lešany u Prostìjova,17.02324130,49.50005144
79843,Ptení,16.94653593,49.51816836
79844,Stražisko,16.92498118,49.54525339
79845,Suchdol u Prostìjova,16.87261735,49.53861990
79846,Brodek u Konice,16.83450642,49.54753219
79847,Horní Štìpánov,16.77854767,49.55708221
79848,Protivanov,16.82792647,49.49322884
79849,Malé Hradisko,16.86961074,49.49097515
79851,Pøemyslovice,16.95858228,49.55688935
79852,Konice,16.87688479,49.59018970
79853,Jesenec,16.84551668,49.60982255
79854,Kladky,16.82837178,49.64459723
79855,Hvozd u Prostìjova,16.89586087,49.64380292
79856,Bohuslavice u Konice,16.96123164,49.62572731
79857,Laškov,16.97987225,49.59082789
79858,Èechy pod Kosíøem,17.02620088,49.55149822
79861,Drahany,16.85572080,49.43201711
79862,Rozstání,16.85078246,49.39897612
